File Number,Company Name,County,Region,Service Category Name,Email,Phone No
TRA3/3/B01/20841,IL LABORATORIO PIZZA AL TRANCIO,Kilifi,Malindi,Restaurants,ndukubeatrice03@gmail.com,791506598
TRA3/3/B01/21111,LE TRE ROSE LIMITED,Kilifi,Malindi,Restaurants,letrerose2023@gmail.com,723587210
TRA1/47/B01/21731,ATLANTIC HOTEL NAIROBI,Nairobi,Nairobi,Restaurants,simonmuga06@gmail.com,717292956
TRA1/47/B01/1,HOSPITALITY FOODS PVT LTD ( THE MAYURA) WESTLANDS,Nairobi,Nairobi,Restaurants,hospitalityfoods@gmail.com,25473100006
TRA1/47/B01/6,MAMA ASHANTI LTD,Nairobi,Nairobi,Restaurants,managerlavington@mamaashanti.co.ke,720307332
TRA1/47/B01/21928,MEPHIS FISH & CHIPS,Nairobi,Nairobi,Restaurants,simon.mugaa06@gmail.com,717292956
TRA1/47/B01/21956,JAVA PARKLANDS,Nairobi,Nairobi,Restaurants,sanya.videlis@yahoo.com,726229382
TRA1/47/B01/21958,PLANET YOGHURT GARDEN CITY,Nairobi,Nairobi,Restaurants,"videlis.sanya@javahouseafrica.com; ",0
TRA1/47/B01/98,HARU RESTAURANT LTD,Nairobi,Nairobi,Restaurants,harukenya@hotmail.com,700318878
TRA1/47/B01/100,HIGH PORT MERCHANTS LTD,Nairobi,Nairobi,Restaurants,accounts@primecuts.co.ke,708555444
TRA1/47/B01/114,AIRPORT VIEW MOTEL,Nairobi,Nairobi,Restaurants,0,NULL
TRA1/47/B01/127,RANDA DISHES LTD,Nairobi,Nairobi,Restaurants,randadishes@gmail.com,2.54704E+11
TRA1/47/B01/132,BURGER KING RESTAURANT (NEXT GEN MALL),Nairobi,Nairobi,Restaurants,priscilla.karanja@servair.co.ke,720211749
TRA1/47/B01/133,BURGER KING RESTAURANT (KAREN),Nairobi,Nairobi,Restaurants,esther.karongo@servair.co.ke,738930306
TRA1/47/B01/135,BURGER KING RESTAURANT (TWO RIVERS MALL),Nairobi,Nairobi,Restaurants,esther.karongo@servair.co.ke,738930306
TRA1/47/B01/145,ASMARA ENTERTAINMENT LTD,Nairobi,Nairobi,Restaurants,accounts@asmara.co.ke,727466263
TRA1/47/B01/157,ASMARA ENTERTAINMENT (JUJA),Nairobi,Nairobi,Restaurants,accounts@asmara.co.ke,72746263
TRA1/47/B01/158,ASMARA ENTERTAINMENT (WESTLANDS),Nairobi,Nairobi,Restaurants,micheal_yohannes@asmara.co.ke,727466263
TRA1/47/B01/176,CHOWPARTY FAST FOODS LTD,Nairobi,Nairobi,Restaurants,info@chowpatyrestaurants.com,722999995
TRA1/47/B01/177,RED ROBIN RESTAURANT,Nairobi,Nairobi,Restaurants,robinfastfoods@gmail.com,720233185
TRA1/47/B01/178,CHOWPATY DELUXE LTD,Nairobi,Nairobi,Restaurants,chowpatydeluxe@gmail.com,701123123
TRA1/47/B01/187,AFRI VENTURES INTERNATIONAL LTD,Nairobi,Nairobi,Restaurants,0,25471625032
TRA1/47/B01/201,MISONO RESTAURANT LTD,Nairobi,Nairobi,Restaurants,restaurantmisono@gmail.com,722511229
TRA1/47/B01/207,HAANDI TWENTY FOUR (CARATS LTD),Nairobi,Nairobi,Restaurants,haandi@haandi-kenya.com,737518780
TRA1/47/B01/22125,MONTANA FISH & CHIPS,Nairobi,Nairobi,Restaurants,simon.mugaa06@gmail.com,717292956
TRA1/47/B01/231,VIEWS COFFEE HOUSE LTD,Nairobi,Nairobi,Restaurants,aminview@gmail.com,791677655
TRA1/47/B01/235,ROAST BY CARNIVORE,Nairobi,Nairobi,Restaurants,assistant.hr@tamarind.co.ke,727604401
TRA1/47/B01/237,KENGELES LAVINGTON GREEN,Nairobi,Nairobi,Restaurants,victorochieng740@gmail.com,727604401
TRA1/47/B01/22151,ARIZONA FISH & CHIPS,Nairobi,Nairobi,Restaurants,simon.mugaa06@gmail.com,717292956
TRA1/47/B01/249,SUPER KILIMANJARO ENTERPRISE LTD,Nairobi,Nairobi,Restaurants,ltd.supet@yahoo.com,2.54728E+11
TRA1/47/B01/272,BOSPHOROUS COMPANY LTD (PIZZA PITTA),Nairobi,Nairobi,Restaurants,ltdbosphorus@gmail.com,727803973
TRA1/47/B01/275,REGENCY SLOTS LIMITED,Nairobi,Nairobi,Restaurants,info@skycitycasino.co.ke,722501342
TRA1/47/B01/296,TRATTORIA LTD,Nairobi,Nairobi,Restaurants,trattoria.kenya@gmail.com,722513675
TRA1/47/B01/313,CLAY OVEN LIMITED,Nairobi,Nairobi,Restaurants,marketing@clayoven.co.ke,25479073063
TRA1/47/B01/358,VALLEY RESTAURANT LTD,Nairobi,Nairobi,Restaurants,valleycoffee2018@gmail.com,728888501
TRA1/47/B01/368,DOUBLE DRAGON CHINESE RESTAURANT,Nairobi,Nairobi,Restaurants,ni0zhengye@gmail.com,722739143
TRA1/47/B01/388,SAFARI BAR & SNACKS,Nairobi,Nairobi,Restaurants,customerservice@servair.co.ke,2.54722E+11
TRA1/47/B01/390,KWAHERI UNIT II- PUB,Nairobi,Nairobi,Restaurants,customerservice@servair.co.ke,722205287
TRA1/47/B01/398,SANTA FE FISH & CHIPS,Nairobi,Nairobi,Restaurants,simon.mugaa06@gmail.com,717292956
TRA1/47/B01/399,SANTA BARBARA FISH & CHIPS,Nairobi,Nairobi,Restaurants,simon.mugaa06@gmail.com,717292956
TRA1/47/B01/405,GAUCHOS LTD (RESTAURANT),Nairobi,Nairobi,Restaurants,fogogauchoaccts@gmail.com,708712255
TRA1/47/B01/413,CHICAGO THE PIZZA PLACE LTD,Nairobi,Nairobi,Restaurants,chicagopizzaplace@gmail.com,733609193
TRA1/47/B01/425,ARTCAFFE COFFEE & BAKERY LIMITED-CHESTER HOUSE,Nairobi,Nairobi,Restaurants,kristyn.akinyi@artcaffe.co.ke,709276000
TRA1/47/B01/432,HORI ENTERTAINMENT LTD,Nairobi,Nairobi,Restaurants,wawerukinyanjui@gmail.com,704777111
TRA1/47/B01/436,"ARTCAFFÉ COFFEE & BAKERY LIMITED-GARDEN CITY ",Nairobi,Nairobi,Restaurants,"sagi.vaknin@artcaffe.co,ke",709276000
TRA1/47/B01/438,ARTCAFFE COFFEE & BAKERY LIMITED-(URBAN GOURMET BURGERS) GALLERIA,Nairobi,Nairobi,Restaurants,sagi.vaknin@artcaffe.co.ke,709276000
TRA1/47/B01/439,ARTCAFFÉ COFFEE & BAKERY LIMITED-JUNCTION MALL,Nairobi,Nairobi,Restaurants,sagi.vaknin@artcaffe.co.ke,709276000
TRA1/47/B01/440,ARTCAFFÉ COFFEE & BAKERY LIMITED-TRM MALL,Nairobi,Nairobi,Restaurants,sagi.vaknin@artcaffe.co.ke,709276000
TRA1/47/B01/441,ARTCAFFÉ COFFEE & BAKERY LIMITED-LAVINGTON,Nairobi,Nairobi,Restaurants,sagi.vaknin@artcaffe.co.ke,709276000
TRA1/47/B01/442,ARTCAFFÉ COFFEE & BAKERY LIMITED-THE HUB,Nairobi,Nairobi,Restaurants,sagi.vaknin@artcaffe.co.ke,709276000
TRA1/47/B01/450,DEPARTURE LOUNGE-ZURU,Nairobi,Nairobi,Restaurants,customerservice@servair.co.ke,722205287
TRA1/47/B01/451,MERCADO MEXICAN KITCHEN & BAR,Nairobi,Nairobi,Restaurants,admin@thefoodlibrary.co.ke,729900539
TRA1/47/B01/466,"ARTCAFFE COFFEE & BAKERY LIMITED-WESTGATE MALL GRAND ",Nairobi,Nairobi,Restaurants,sagi.vaknin@artcaffe.co.ke,709276000
TRA1/47/B01/468,ARTCAFE COFFEE & BAKERY LIMITED-TWO RIVERS,Nairobi,Nairobi,Restaurants,sagi.vaknin@artcaffe.co.ke,709276000
TRA1/47/B01/470,ARTCAFFE COFFEE & BAKERY LIMITED-THE ADDRESS,Nairobi,Nairobi,Restaurants,sagi.vaknin@artcaffe.co.ke,709276000
TRA1/47/B01/477,ARTCAFFE COFFEE & BAKERY LIMITED-YAYA CENTRE,Nairobi,Nairobi,Restaurants,sagi.vaknin@artcaffe.co.ke,709276000
TRA1/47/B01/479,CONFERENCE CATERERS,Nairobi,Nairobi,Restaurants,Cconcaters2014@gmail.com,728888431
TRA1/47/B01/481,ARTCAFFE COFFEE & BAKERY LIMITED-OVAL,Nairobi,Nairobi,Restaurants,sagi.vaknin@artcaffe.co.ke,709276000
TRA1/47/B01/482,CHINESE CORNER LTD (SARIT CENTER),Nairobi,Nairobi,Restaurants,timojappinen@hotmail.com,722707740
TRA1/47/B01/495,CHURRASCO GAUCHO LTD,Nairobi,Nairobi,Restaurants,fogogauchoaccts@gmail.com,708712255
TRA1/47/B01/501,THE GRACEFUL CHINESE RESTAURANT,Nairobi,Nairobi,Restaurants,gracefultaste@gamail.com,717373369
TRA1/47/B01/510,MAHRAJ RESTAURANT LIMITED,Nairobi,Nairobi,Restaurants,deepchandjoshi@gmail.com,733737316
TRA1/47/B01/512,"NEW FRESH ""N"" HEALTHY",Nairobi,Nairobi,Restaurants,gang_jsg@yahoo.com,719106692
TRA1/47/B01/527,NIRVANA VEGETARIAN KHAZANA LTD,Nairobi,Nairobi,Restaurants,nirvanakhazana@gmail.com,713939423
TRA1/47/B01/552,ANGHITI RESTAURANT LTD,Nairobi,Nairobi,Restaurants,anghiti88@gmail.com,073432033O
TRA1/47/B01/553,HAANDI RESTAURANT LTD,Nairobi,Nairobi,Restaurants,haandi@haandi-kenya.com,737518780
TRA1/47/B01/564,TAMARIND BRASSERIE KAREN,Nairobi,Nairobi,Restaurants,assistant.hr@tamarind.co.ke,727604401
TRA1/47/B01/574,TAJ EXPRESS (K) LTD,Nairobi,Nairobi,Restaurants,dhanjalmotorworks@yahoo.com,722707025
TRA1/47/B01/576,NAS AIRPORT SERVICES,Nairobi,Nairobi,Restaurants,caroline.njeri@servair.co.ke,2.54723E+11
TRA1/47/B01/594,ROAD HOUSE GRILL ARWING KODHEK RD,Nairobi,Nairobi,Restaurants,roadhouse@intercitymanagement.com,723799828
TRA1/47/B01/22502,KENTUCKY FISH & CHIPS,Nairobi,Nairobi,Restaurants,simon.mugaa06@gmail.com,717292956
TRA1/47/B01/601,ABOUT THYME RESTAURANT,Nairobi,Nairobi,Restaurants,accounts@about-thyme.com,721850026
TRA1/47/B01/616,TOKYO RESTAURANT,Nairobi,Nairobi,Restaurants,tokyonbi@gmail.com,2.54723E+11
TRA1/47/B01/619,CARNIVORE RESTAURANT,Nairobi,Nairobi,Restaurants,maureen.0miroi@tamarind.co.ke,727604401
TRA1/47/B01/644,ANKOLE GRILL LIMITED,Nairobi,Nairobi,Restaurants,admin@ankole.co.ke,2.54734E+11
TRA1/47/B01/660,MAJID ALFUTTAHIM HYPERMARKET LIMITED-CARREFOUR NEXTGEN MALL,Nairobi,Nairobi,Restaurants,amarore@mafcarrefour.com,741586988
TRA1/47/B01/666,KINGSBURY GROUP LIMITED,Nairobi,Nairobi,Restaurants,events@misterwok.net,2.54724E+11
TRA1/47/B01/676,OPEN HOUSE RESTAURANT KAREN,Nairobi,Nairobi,Restaurants,openhousekaren@gmail.com,725585175
TRA1/47/B01/691,"ARTICAFFE COFFEE AND BAKERY LIMITED-VILLAGE MARKET ",Nairobi,Nairobi,Restaurants,tworivers@artcaffe.com,709276000
TRA1/47/B01/700,AFRITOPIA LIMITED T/A ROCOMAMAS VILLAGE MARKET,Nairobi,Nairobi,Restaurants,lafritopia@gmail.com,2.54736E+11
TRA1/47/B01/723,ASIANA KENYA LIMITED,Nairobi,Nairobi,Restaurants,furusatonairobi@gmail.com,798189353
TRA1/47/B01/729,TIN TIN RESTAURANT LTD,Nairobi,Nairobi,Restaurants,finance@tintin.co.ke,717503238
TRA1/47/B01/737,KINGSBURY GROUP LTD T/A MISTER WOK,Nairobi,Nairobi,Restaurants,events@misterwok.net,2.54724E+11
TRA1/47/B01/756,ROAD HOUSE GRILL DENNIS PRITT,Nairobi,Nairobi,Restaurants,roadhouse@intercitymanagement.com,0
TRA1/47/B01/761,SIA QSR KENYA LTD   BURGER KING TRM,Nairobi,Nairobi,Restaurants,esther.karongo@servair.co.ke,738930306
TRA1/47/B01/763,SAAPE LTD ETB,Nairobi,Nairobi,Restaurants,finance@saape.co.ke,728830467
TRA1/47/B01/764,SAAPE LTD LAVINGTON MALL,Nairobi,Nairobi,Restaurants,finance@saape.co.ke,728830467
TRA1/47/B01/22657,"MC FRYS LIMITED - MAGHARIBI ",Nairobi,Nairobi,Restaurants,mcfrysltd@gmail.com,731998998
TRA1/47/B01/22658,MC FRYS LIMITED - RACECOURSE,Nairobi,Nairobi,Restaurants,mcfrysltd@gmail.com,731998998
TRA1/47/B01/22659,MC FRYS LIMITED  BUTERE,Nairobi,Nairobi,Restaurants,mcfrysltd@gmail.com,731998998
TRA1/47/B01/22660,"MC FRYS LIMITED- GALLERIA ",Nairobi,Nairobi,Restaurants,mcfrysltd@gmail.com,731998998
TRA1/47/B01/22661,"MC FRYS LIMITED- SOUTH B ",Nairobi,Nairobi,Restaurants,mcfrysltd@gmail.com,731998998
TRA1/47/B01/22665,MC FRYS LIMITED- ADAMS ARCADE,Nairobi,Nairobi,Restaurants,mcfrysltd@gmail.com,731998998
TRA1/47/B01/22666,MC FRYS LIMITED - LAVINGTON,Nairobi,Nairobi,Restaurants,mcfrysltd@gmail.com,731998998
TRA1/47/B01/22667,MC FRYS  LIMITED - HIGHRIDGE,Nairobi,Nairobi,Restaurants,mcfrysltd@gmail.com,731998998
TRA1/47/B01/22668,MC FRYS LIMITED - WESTLANDS,Nairobi,Nairobi,Restaurants,mcfrysltd@gmail.com,731998998
TRA1/47/B01/22669,MC FRYS LIMITED - HURLINGHAM,Nairobi,Nairobi,Restaurants,mcfrysltd@gmail.com,731998998
TRA1/47/B01/22670,MC FRYS LIMITED NAIROBI WEST,Nairobi,Nairobi,Restaurants,mcfrysltd@gmail.com,731998998
TRA1/47/B01/22671,MC FRYS LIMITED - GIGIRI,Nairobi,Nairobi,Restaurants,mcfrysltd@gmail.com,731998998
TRA1/47/B01/22672,MC FRYS LIMITED - KAREN,Nairobi,Nairobi,Restaurants,mcfrysltd@gmail.com,731998998
TRA1/47/BO2/802,LSG SKY CHEFS KENYA LTD,Nairobi,Nairobi,Restaurants,george.mathew@lsgskychefs.com,2.54724E+11
TRA1/47/B01/830,AFRITOPIA LTD T/A SILVER STREAM SPUR,Nairobi,Nairobi,Restaurants,LAFRITOPIA@GMAIL.COM,2.54736E+11
TRA1/47/B01/853,THE TAVERN LTD,Nairobi,Nairobi,Restaurants,chana@gablesgroup.co.ke,720636323
TRA1/47/B01/870,GUSTO & ARTE LIMITED,Nairobi,Nairobi,Restaurants,rusticals@gmail.com,708317236
TRA1/47/B01/875,HOTSPOT COFFEE LOUNGE LTD,Nairobi,Nairobi,Restaurants,hotspotcoffee@gmail.com,721890784
TRA1/47/B01/881,EAGLE PEAK LTD,Nairobi,Nairobi,Restaurants,spur@optiven.co.ke,2.54703E+11
TRA1/47/B01/884,KITCHENETTE BISTRO & CAFÉ,Nairobi,Nairobi,Restaurants,kitchenettebistro@gmail.com,2.54721E+11
TRA1/47/B01/887,BOTANICA KITCHEN & GIN BAR,Nairobi,Nairobi,Restaurants,admin@thefoodlibrary.co.ke,729900539
TRA1/47/B01/888,INTI A NIKKEI EXPERIENCE T/A INTI BY JIT LTD,Nairobi,Nairobi,Restaurants,admin@thefoodlibrary.co.ke,720322842
TRA1/47/B01/902,OVER FALLS INVESTMENT LTD KILIMANJARO JAMIA,Nairobi,Nairobi,Restaurants,faisalislam818@gmail.com,742529165
TRA1/47/B01/905,BBROOD KENYA LTD (VILLAGE MKT),Nairobi,Nairobi,Restaurants,finance-ke@bbrood.com,757922613
TRA1/47/B01/906,BBROOD KENYA LTD (ADLIFE PLAZA),Nairobi,Nairobi,Restaurants,finance-ke@bbrood.com,757922613
TRA1/47/B01/907,BBROOD KENYA LTD(SARIT CENTER),Nairobi,Nairobi,Restaurants,finance-ke@bbrood.com,757922613
TRA1/47/B01/909,BBROOD KENYA LTD(MAGADI ROAD),Nairobi,Nairobi,Restaurants,finance-ke@bbrood.com,757922613
TRA1/47/B01/920,MAJID AL-FUTTAIM HYPERMARKETS-GALLERIA MALL,Nairobi,Nairobi,Restaurants,amarore@mafcarrefour.com,741586988
TRA1/47/B01/921,MAJID AL-FUTTAIM HYPERMARKETS-JUNCTION MALL,Nairobi,Nairobi,Restaurants,amarore@mafcarrefour.com,741586988
TRA1/47/B01/922,MAJID AL-FUTTAIM HYPERMARKETS-TRM,Nairobi,Nairobi,Restaurants,amarore@mafcarrefour.com,741586988
TRA1/47/B01/923,MAJID AL-FUTTAIM HYPERMARKETS-THE HUB,Nairobi,Nairobi,Restaurants,amarore@mafcarrefour.com,741586988
TRA1/47/B01/924,MAJID AL-FUTTAIM HYPERMARKETS-TWO RIVERS,Nairobi,Nairobi,Restaurants,amarore@mafcarrefour.com,741586988
TRA1/47/B01/925,"MAJID AL-FUTTAIM HYPERMARKET-SARIT ",Nairobi,Nairobi,Restaurants,amarore@mafcarrefour.com,741586988
TRA1/47/B01/926,MAJID AL-FUTTAIM HYPERMARKETS-VILLAGE MARKET,Nairobi,Nairobi,Restaurants,amarore@mafcarrefour.com,741586988
TRA1/47/B01/927,"VIBRO CLUB ",Nairobi,Nairobi,Restaurants,migirodavid@gmail.com,2.54723E+11
TRA1/47/B01/929,SIA GSR (k) LTD BURGER KING LAVINGTON,Nairobi,Nairobi,Restaurants,esther.karongo@servair.co.ke,738930306
TRA1/47/B01/932,ARTCAFFE COFFEE  & BAKERY LIMITED-KIMATHI STREET,Nairobi,Nairobi,Restaurants,sagi.vaknin@artcaffe.co.ke,709276000
TRA1/47/B01/933,ARTCAFFE COFFEE  & BAKERY LIMITED WESTMINSTER,Nairobi,Nairobi,Restaurants,sagi.vaknin@artcaffe.co.ke,709276000
TRA1/47/B01/934,ARTCAFFE COFFEE & BAKERY LIMITED-VALLEY ARCADE,Nairobi,Nairobi,Restaurants,sagi.vaknin@artcaffe.co.ke,709276000
TRA1/47/B01/935,ARTCAFFE COFFEE & BAKERY LIMITED-FREEDOM HEIGHTS,Nairobi,Nairobi,Restaurants,sagi.vaknin@artcaffe.co.ke,709276000
TRA1/47/B01/936,ARTCAFFE COFFEE  & BAKERY LIMITED-GALLANT PARKLANDS,Nairobi,Nairobi,Restaurants,sagi.vaknin@artcaffe.co.ke,709276000
TRA1/47/B01/937,ART CAFFE COFFEE  & BAKERY LIMITED-CAPITAL CENTRE,Nairobi,Nairobi,Restaurants,sagi.vaknin@artcaffe.co.ke,709276000
TRA1/47/B01/942,AFRITOPIA LTD T/A ROCOMAMAS SARIT,Nairobi,Nairobi,Restaurants,lafritopia@gmail.copm,2.54736E+11
TRA1/47/B01/949,SPRING VALLEY COFFEE ROASTERS LIMITED-LIMURU ROAD,Nairobi,Nairobi,Restaurants,coffee@springvalleycoffee.com,775111111
TRA1/47/B01/950,SPRING VALLEY COFFEE ROASTERS LIMITED-LANGATA ROAD,Nairobi,Nairobi,Restaurants,coffee@springvalleycoffee.com,703709709
TRA1/47/B01/951,SPRING VALLEY COFFEE ROASTERS LIMITED-LOWER KABETE,Nairobi,Nairobi,Restaurants,coffee@springvalleycoffee.com,703709709
TRA1/47/B01/952,SPRING VALLEY COFFEE ROASTER LIMITED-MWANZI ROAD,Nairobi,Nairobi,Restaurants,coffee@springvalleycoffee.com,775111111
TRA1/47/B02/953,LESAN CATERERS LTD,Nairobi,Nairobi,Restaurants,jlenkume@gmail.com,722582976
TRA1/47/B01/956,BBROOD LTD,Nairobi,Nairobi,Restaurants,finance-ke@bbrood.com,757922613
TRA1/47/B01/958,CAFE SAFARI,Nairobi,Nairobi,Restaurants,sales@safarisparkhotel.co.ke,25420363300
TRA1/47/B02/960,MAJID ALFUTTAIM HYPERMARKET-WESTGATE MALL,Nairobi,Nairobi,Other food and beverage services,amarore@mafcarrefour.com,741586988
TRA1/47/B01/971,SAAPE LTD KIAMBU RD,Nairobi,Nairobi,Restaurants,finance@saape.co.ke,728830467
TRA1/47/B01/977,FLAVOR TOWN CAFÉ-KAREN,Nairobi,Nairobi,Restaurants,mromar980@gmail.com,701000090
TRA1/47/B01/978,FLAVOR TOWN CAFÉ-VILLAGE MRK,Nairobi,Nairobi,Restaurants,mromar980@gmail.com,796000090
TRA1/47/B01/979,FLAVOR TOWN CAFÉ-CBD,Nairobi,Nairobi,Restaurants,mromar980@gmail.com,701000090
TRA1/47/B01/981,ANKOLE GRILL LTD,Nairobi,Nairobi,Restaurants,admin@ankole.co.ke,2.54734E+11
TRA1//B02/22871,NAIVAS LIMITED DELI-KASARANI,Nairobi,Nairobi,Other food and beverage services,onesmus.omari@naivas.co.ke,710110568
TRA1/47/B02/985,NAIVAS LIMITED DELI-UTAWALA,Nairobi,Nairobi,Other food and beverage services,onesmus.omari@naivas.co.ke,710110568
TRA1/47/B02/989,NAIVAS LIMITED DELI-MACHAKOS SUPERCENTRE,Nairobi,Nairobi,Other food and beverage services,onesmus.omari@naivas.co.ke,710110568
TRA1/47/B02/990,NAIVAS LIMITED DELI-UKUNDA,Nairobi,Nairobi,Other food and beverage services,onesmus.omari@naivas.co.ke,710110568
TRA1/47/B02/991,NAIVAS LIMITED DELI-GREEN HOUSE,Nairobi,Nairobi,Other food and beverage services,onesmus.omari@naivas.co.ke,710110568
TRA1/47/B02/992,NAIVAS LIMITED DELI-HOME GROUND,Nairobi,Nairobi,Other food and beverage services,onesmus.omari@naivas.co.ke,710110568
TRA1/47/B02/993,NAIVAS LIMITED DELI-CAPITAL CENTRE,Nairobi,Nairobi,Other food and beverage services,onesmus.omari@naivas.co.ke,710110568
TRA1/47/B02/994,NAIVAS LIMITED DELI-MOI AVENUE,Nairobi,Nairobi,Other food and beverage services,onesmus.omari@naivas.co.ke,710110568
TRA1/47/B02/995,NAIVAS LIMITED DELI-NEW RONALD NGALA,Nairobi,Nairobi,Other food and beverage services,onesmus.omari@naivas.co.ke,710110568
TRA1/47/B02/996,NAIVAS LIMITED DELI-GATEWAY,Nairobi,Nairobi,Other food and beverage services,onesmus.omari@naivas.co.ke,710110568
TRA1/47/B02/997,NAIVAS LIMITED DELI-LIKONI,Nairobi,Nairobi,Other food and beverage services,onesmus.omari@naivas.co.ke,710110568
TRA1/47/B02/998,NAIVAS LIMITED DELI-KITENGELA,Nairobi,Nairobi,Other food and beverage services,onesmus.omari@naivas.co.ke,710110568
TRA1/47/B02/1000,NAIVAS LIMITED DELI-RUARAKA,Nairobi,Nairobi,Other food and beverage services,onesmus.omari@naivas.co.ke,710110568
TRA1//B02/22919,QUICK MART LIMITED DELI-KISERIAN,Kajiado,Nairobi,Other food and beverage services,info@quickmart.co.ke,726666900
TRA1/47/B02/1033,QUICK MART LIMITED DELI-RONGAI EXPRESS,Nairobi,Nairobi,Other food and beverage services,info@quickmart.co.ke,726666900
TRA1/47/B02/1034,QUICK MART LIMITED DELI-RONGAI MAIN,Nairobi,Nairobi,Other food and beverage services,info@quickmart.co.ke,726666900
TRA1/47/B02/1035,MAJID AL FUTTAIM HYPERMARKET-MEGA,Nairobi,Nairobi,Other food and beverage services,amarore@mafcarrefour.com,741586988
TRA1/47/B02/1036,QUICK MART LIMITED DELI-EASTERN BYPASS 2,Nairobi,Nairobi,Other food and beverage services,info@quickmart.co.ke,726666900
TRA1/47/B02/1040,QUICK MART LIMITED DELI-NANYUKI,Laikipia,Nairobi,Other food and beverage services,info@quickmart.co.ke,726666900
TRA1/47/B02/1041,QUICK MART LIMITED DELI-BURUBURU,Nairobi,Nairobi,Other food and beverage services,info@quickmart.co.ke,726666900
TRA1/47/B02/1042,QUICK MART LIMITED DELI-DONHOLM,Nairobi,Nairobi,Other food and beverage services,info@quickmart.co.ke,726666900
TRA1/47/B02/1043,QUICK MART LIMITED DELI-EMBAKASI,Nairobi,Nairobi,Other food and beverage services,info@quickmart.co.ke,726666900
TRA1/47/B02/1044,QUICK MART LIMITED DELI-FEDHA,Nairobi,Nairobi,Other food and beverage services,info@quickmart.co.ke,726666900
TRA1/47/B02/1045,QUICK MART LIMITED DELI-JIPANGE,Nairobi,Nairobi,Other food and beverage services,info@quickmart.co.ke,726666900
TRA1/47/B02/1046,QUICK MART LIMITED DELI-KAHAWA WEST,Nairobi,Nairobi,Other food and beverage services,info@quickmart.co.ke,726666900
TRA1/47/B02/1048,QUICK MART LIMITED DELI-KILIMANI,Nairobi,Nairobi,Other food and beverage services,info@quickmart.co.ke,726666900
TRA1/47/B02/1050,QUICK MART LIMITED DELI MFANGANO,Nairobi,Nairobi,Other food and beverage services,info@quickmart.co.ke,726666900
TRA1/47/B02/1051,QUICK MART LIMITED DELI-ROYSAMBU,Nairobi,Nairobi,Other food and beverage services,info@quickmart.co.ke,726666900
TRA1/47/B02/1053,QUICK MART LIMITED DELI-UTAWALA MAIN,Nairobi,Nairobi,Other food and beverage services,info@quickmart.co.ke,726666900
TRA1/47/B01/1062,"ARTCAFFE COFFEE & BAKERY-ARGWINGS ARCADE ",Nairobi,Nairobi,Restaurants,sajivaknin@artcafe.co.ke,709276000
TRA1/47/B01/1086,THE WINE SHOP LTD,Nairobi,Nairobi,Restaurants,thewineshopkenya@gmail.com,718003326
TRA1/47/B01/1087,RR CORPORATE LIMITED-THE LIBRARY,Nairobi,Nairobi,Restaurants,thelibrarykenya@gmail.com,25473100006
TRA1/47/B01/1088,MAGIC PEAK LTD,Nairobi,Nairobi,Restaurants,bdmkaren@gmcplace.co.ke,2.54701E+11
TRA1/47/B01/1089,XA0DU INVESTMENTS LIMITED T/A THE VENCE BAR & BISTRO,Nairobi,Nairobi,Restaurants,accounts@thevenue.ke,25471187095
TRA1/47/B01/1090,JIT MART LTD T/A BAMBINO LITIN ITALIAN KITCH & BAR,Nairobi,Nairobi,Restaurants,admin@thefoodlibrary.co.ke,729900539
TRA1/47/B01/1103,ASMARA ENTERTAINMENT LIMITED,Nairobi,Nairobi,Restaurants,accounts@asmara.co.ke,727466263
TRA1/47/B01/1105,LI'S CHINESE RESTAURANT (NAIROBI) LTD,Nairobi,Nairobi,Restaurants,lischinesegigiri@yahoo.com,735838959
TRA1/47/B01/1106,SPICED BASIL LTD,Nairobi,Nairobi,Restaurants,spicedbasilltd@gmail.com,781234234
TRA1/47/B01/1112,SUN SWEET CENTRE LTD,Nairobi,Nairobi,Restaurants,hetal.pn23@gmail.com,737888880
TRA1/47/B01/1114,RAFIKI CAFE,Mombasa,Nairobi,Restaurants,david.otunga@servair.fr,720016850
TRA1/47/B01/1115,KWAHERI CAFE,Mombasa,Nairobi,Restaurants,customerservice@servair.co.ke,720016850
TRA1/47/B01/1116,DOMESTIC LOUNGE,Mombasa,Nairobi,Restaurants,customerservice@servair.co.ke,720016850
TRA1/47/B01/1118,KARIBU CAFE,Mombasa,Nairobi,Restaurants,customerservice@servair.co.ke,720016850
TRA1/47/B01/1119,MESO KITCHEN & BAR,Nairobi,Nairobi,Restaurants,admin@the foodlibrary.co.ke,729900539
TRA1/47/B01/1140,SLATE KITCHEN & BAR,Nairobi,Nairobi,Restaurants,admin@thefoodlibrary.co.ke,25472990053
TRA1/47/B01/1147,HABIB FOODS AND CATERING LTD,Nairobi,Nairobi,Restaurants,habibfoodsandcatering@gmail.com,24572151115
TRA1/47/B01/1148,MITSUKI GROUP LIMITED,Nairobi,Nairobi,Restaurants,wawerukinyanjui@gmail.com,746000888
TRA1/47/B01/1150,FUSION VEG LIMITED,Nairobi,Nairobi,Restaurants,fusionvegltoitax@gmail.com,2.54116E+11
TRA1/47/B01/1156,FOGO GAUCHO CHURRASCARIA LIMITED,Nairobi,Nairobi,Restaurants,fogogauchocaccts@gmail.com,708712255
TRA1/47/B01/1158,Hospitality Foods Private Limited Dhaba,Nairobi,Nairobi,Restaurants,hospitalityfoods@gmail.com,25473100006
TRA1/47/B01/1160,KESI LIMITED RESTAURANT,Nairobi,Nairobi,Restaurants,gelsikenya@gmailcom,2.54759E+11
TRA1/47/B01/1161,ROGERS CHICKEN AND CHIPS,Nairobi,Nairobi,Restaurants,fortstone@gmail.com,780364212
TRA1/47/B01/1162,AFRITOPIA LTD T/A RIFT VALLEY SPUR,Nairobi,Nairobi,Restaurants,lafritopia@gmail.com,2.54736E+11
TRA1/47/B01/1163,KARMA ENDEVOURS LTD,Nairobi,Nairobi,Restaurants,karmanext21@gmail.com,780445523
TRA1/47/B01/1167,NAIVAS LIMITED DELI-AGAKHAN WALK,Nairobi,Nairobi,Restaurants,onesmus.omari@naivas.co.ke,710110568
TRA1/47/B01/1168,NAIVAS LIMITED DELI-AIRPORT VIEW,Nairobi,Nairobi,Restaurants,onesmus.omari@naivas.co.ke,710110568
TRA1/47/B01/1170,"NAIVAS LIMITED DELI-CIATA MALL KIAMBU ROAD ",Nairobi,Nairobi,Restaurants,onesmus.omari@naivas.co.ke,710110568
TRA1/47/B01/1172,NAIVAS LIMITED DELI-LIMURU,Nairobi,Nairobi,Restaurants,onesmus.omari@naivas.co.ke,710110568
TRA1/47/B01/1173,NAIVAS LIMITED DELI- KATANI BRANCH,Nairobi,Nairobi,Restaurants,onesmus.omari@naivas.co.ke,710110568
TRA1/47/B01/1175,YUMMY FACTORY GROUP LIMITED,Nairobi,Nairobi,Restaurants,zhangrenguan@gmail.com,713012348
TRA1/47/B01/1178,MILAN CONCEPTS LTD,Nairobi,Nairobi,Restaurants,accounts@milan.co.ke,725493586
TRA1/47/B02/1180,MAJID AL FUTTAIM HYPERMARKET LTD-VALLEY ARCADE,Nairobi,Nairobi,Other food and beverage services,amarore@mafcarrefour.com,741586988
TRA1/34/B01/52,TEXAS ARENAS CHOMA ZONE,Kajiado,Nairobi,Restaurants,mk2texas@gmail.com,722814232
TRA1/34/B01/61,GMC POT LIMITED,Kajiado,Nairobi,Restaurants,info@funplace.co.ke,701560560
TRA1/47/B02/30963,KITCHEN OF SAROVA LTD,Nairobi,Nairobi,Restaurants,julius.kiiru@sarovahotels.com,793000444
TRA7/19/B01/114,TUMU'S BAR & RESTAURANT,Nyeri,Nyeri,Restaurants,samuelndanya890@gmail.com,720479362
TRA7/19/B01/231,CONSUMBER PRIDE NYERI LOWER,Nyeri,Nyeri,Restaurants,ceasarwahome@gmail.com,720110190
TRA7/19/B01/1,TROUT TREE RESTAURANT,Nyeri,Nyeri,Restaurants,trouttreerestaurant@gmail.com,726281704
TRA7/12/B01/1,ANGIES CAFÉ,Meru,Nyeri,Restaurants,angelamiranda595@gmail.com,722858595
TRA7/12/B01/33,PERSONALITY BAR AND RESTAURANT,Meru,Nyeri,Restaurants,kijanahw@yahoo.com,723437019
TRA7/12/B01/47,VILLAGE MOCAZ,Meru,Nyeri,Restaurants,davidkaguongwo@gmail.com,727281097
TRA7/12/B01/48,KAJIM BUTCHERY,Meru,Nyeri,Restaurants,davidkaguongwo@gmail.com,727281097
TRA7/12/B01/49,BEACHAZ CAMP,Meru,Nyeri,Restaurants,davidkaguongwo@gmail.com,727281097
TRA7/12/B01/116,CHECKOMATE LOUNGE,Meru,Nyeri,Restaurants,checkomateltd@gmail.com,727807386
TRA7/12/B01/135,BRADEGATE RESTAURANT MAKUTANO,Meru,Nyeri,Restaurants,josephmanyangi@gmail.com/,0
TRA7/12/B01/137,CAMFLAMES RESTARANT,Meru,Nyeri,Restaurants,cameflames2019@gmail.com,726927330
TRA7/12/B01/144,WINNERS GRILL,Meru,Nyeri,Restaurants,ntoribigitonnga1983@gmail.com,724551161
TRA7/31/B01/5,JIBS BISTRO LIMITED,Laikipia,Nyeri,Restaurants,jibsbistro@gmail.com,745063000
TRA7/31/B01/96,QUALITY CAFÉ,Laikipia,Nyeri,Restaurants,qualittrading@gmail.com,722159900
TRA7/31/B01/125,THE NOOK CAFÉ & BAR,Laikipia,Nyeri,Restaurants,thenooknanyuki@gmail.com,701241241
TRA7/31/B01/132,SOLANA JUNCTION LOUNGE,Laikipia,Nyeri,Restaurants,doitallconsult@gmail.com,720219553
TRA7/20/B01/121,Safi Laz Restaurant,Kirinyaga,Nyeri,Restaurants,lazarusmunene@gmail.com,724878176
TRA7/20/B01/137,SPICEUP LOUNGE AND RESTAURANT,Kirinyaga,Nyeri,Restaurants,Spiceuplounge@gmail.com            barbrawangui@gmail.com,722640686
TRA7/20/B01/138,ROSEPARK GARDENS LIMITED,Kirinyaga,Nyeri,Restaurants,chombahbk@yahoo.com,0
TRA/14/B01/1,CLUB BASE RESORT,Embu,/,Restaurants,clubbase@gmail.com,720515365
TRA7/14/B01/122,PICK POINT INN,Embu,Nyeri,Restaurants,lewisrwinu@gmail.com,712132100
TRA7/14/B01/174,SWAMPLAND BAR & RESTAURANT,Embu,Nyeri,Restaurants,Justo.muriithi@yahoo.com,721237571
TRA7/19/B01/248,JOHANAS GRILL & RESTAURANT,Nyeri,Nyeri,Restaurants,johnmurehia@gmail.com,724444096
TRA7/31/B01/1,BARNEY'S RESTAURANT(ottocento company ltd),Laikipia,Nyeri,Restaurants,info@barneysnanyuki.com,723310064
TRA7/20/B01/136,SUMMER LEISURE GARDENS,Kirinyaga,Nyeri,Restaurants,janmbu@gmail.com,722225456
TRA3/4/B01/002,SHEMEJI HOTEL,Tana River,Malindi,Restaurants,rsagwe@gmail.com,NULL
TRA3/3/B01/001,ZANZIBAR CAFÉ,Kilifi,Malindi,Restaurants,hathman58@gmail.com,714941440
TRA3/3/B01/004,A.R. CASUARINA  LTD,Kilifi,Malindi,Restaurants,arcasuarina@gmail.com,758656799
TRA3/3/B01/007,KILIFI BOAT YARD,Kilifi,Malindi,Restaurants,kilifiboats@gmail.com,722442334
TRA3/3/B01/027,URAFIKI HIGHWAY BAR,Kilifi,Malindi,Restaurants,kiminzapeter@gmail.com,723300968
TRA3/3/B01/051,MOORINGS BAR & RESTAURANT,Kilifi,Malindi,Restaurants,Lazimadhows@yahoo.com,700720388
TRA3/3/B01/059,WATAMU BUSINESS ENTERPRISES LTD,Kilifi,Malindi,Restaurants,hosteriaromanawatamu@gmail.com,711867275
TRA3/3/B01/068,TUSCANY GARDENS LTD T/A ROSADA BEACH,Kilifi,Malindi,Restaurants,rosadabeach@gmail.com,718189793
TRA3/3/B01/132,ROGIUDA PIZZERIA,Kilifi,Malindi,Restaurants,koijulius37@gmail.com,25479276612
TRA3/3/B01/145,APACHE INDIAN RESTAURANT,Kilifi,Malindi,Restaurants,apacheindian@gmail.com,720556656
TRA3//B01/41577,"NON SOLO GELATO LIMITED ",Nairobi,Malindi,Restaurants,account@nonsologelato.co.ke,727950426
TRA3/3/B01/167,JACARANDA ROSSA WATAMU LIMITED,Kilifi,Malindi,Restaurants,jacarandarossawatamultd@gmail.com,748245458
TRA3/3/B01/168,WASAFI SWAHILI DISHES,Kilifi,Malindi,Restaurants,wsdwatamu@gmail.com,710735420
TRA3/3/B01/169,PICCOLO MONDO ENTERPRISES CO.LTD T/A NAUTILUS RESTAURANT,Kilifi,Malindi,Restaurants,PICCOLO@ICONNECT.CO.KE,724341034
TRA3/3/B01/191,MARINA SEASIDE LIMITED,Kilifi,Malindi,Restaurants,marinaseasideltd@gmail.com,722406291
TRA3/3/B01/192,NON-SOLO GELATO LTD MUTHAIGA,Nairobi,Malindi,Restaurants,account@nonsologelato.co.ke,727950426
TRA3/3/B01/193,NON-SOLO GELATO LTD VILLAGE MARKET,Nairobi,Malindi,Restaurants,account@nonsologelato.co.ke,727950426
TRA3/3/B01/202,PENELOPE KENYA LIMITED,Kilifi,Malindi,Restaurants,PENELOPE.MALINDI@GMAIL.COM,705144744
TRA3/3/B01/203,COFFEE SHOP LO SFIZIO,Kilifi,Malindi,Restaurants,losfizio@gmail.com,25759913496
TRA3/3/B01/204,NON SOLO GELATO LIMITED OLA ENERGY PLAZA NRB,Nairobi,Malindi,Restaurants,account@nonsologelato.co.ke,727950426
TRA3/3/B01/210,MALI BEACH LTD T/A MALAIKA BAR AND RESTAURANT,Kilifi,Malindi,Restaurants,antonella325@hotmail.it,2.54715E+11
TRA3/3/B01/214,BREAK YAKUTZ BEACH RESTAURANT,Kilifi,Malindi,Restaurants,johnmvuko2018@gmail.com,700235448
TRA3/3/B01/223,MAIDOS CAFÉ,Kilifi,Malindi,Restaurants,MIDOSCAFE@GMAIL.COM,24573387877
TRA3/3/B01/226,CASA PIETRO RESTAURANT,Kilifi,Malindi,Restaurants,PIVERPA@GMAIL.COM,727483855
TRA3/3/B01/230,NON-SOLO GELATO SARIT NBO,Nairobi,Malindi,Restaurants,account@nonsologelato.co.ke,727950426
TRA3/3/B01/233,"ZURI BIEN HOTEL LTD T/A T&T RESTAURANT ",Kilifi,Malindi,Restaurants,zurihotel004@gmail.com,726889891
TRA3/3/B01/237,COMTECH INTERNATIONAL LIMITED (SULTAN PALACE),Kilifi,Malindi,Restaurants,FRANCISUTR@GMAIL.COM,0724 481659
TRA3/3/B01/240,NON SOLO GELATO LTD YAYA CENTER,Nairobi,Malindi,Restaurants,account@nonsologelato.co.ke,727950426
TRA3/3/B01/20721,AUBUGER CHRIS BEACH RESTAURANT,Kilifi,Malindi,Restaurants,JMBECKY@GMAIL.COM,741868090
TRA3/3/B01/022,MALINDI MANAGEMENT STRATEGY LTD T/A CASINO MALINDI,Kilifi,Malindi,Restaurants,info@casinomalindi.com,727667331
TRA2/01/B01/02,CLOSE THE GAP CAFÉ,Mombasa,Mombasa,Restaurants,CLOSETHEGAP@GMAIL.COM,746998771
TRA2/01/B01/03,"TARBOUCH CAFÉ ",Mombasa,Mombasa,Restaurants,AMURSYAI90@GMAIL.COM,707912615
TRA2/01/B01/12,BASE AND TREBLE LIMITED,Mombasa,Mombasa,Restaurants,NASSIRKULSAM@GMAIL.COM,731857156
TRA1/47/B01/2,HOSPITALITY FOODS PRIVATE LTD - THE MAYURA KAREN,Nairobi,Nairobi,Restaurants,hospitalityfoods@gmail.com,25473100006
TRA2/01/B01/24,GALAXY CHINESE RESTAURANT,Mombasa,Mombasa,Restaurants,info@baobabholidayresort.com,202138611
TRA2/01/B01/26,AQUADROM LTD T/A YULS,Mombasa,Mombasa,Restaurants,aquadrom@africanonline.co.ke,722511581
TRA2/01/B01/36,LI'S CHINESE RESTAURANT LTD,Mombasa,Mombasa,Restaurants,LISRESTAURANT@YAHOO.COM,799516324
TRA2/01/B01/39,BACK TO OUR ROOTS DISHES,Mombasa,Mombasa,Restaurants,ROSE2MUTAHI@GMAIL.COM,724599875
TRA2/01/B01/50,"SHEHNAI RESTAURANT ",Mombasa,Mombasa,Restaurants,shehnai.restaurant@gmail.com,722871111
TRA2/01/B01/53,YUKAY FAST FOOD CAFETERIA,Mombasa,Mombasa,Restaurants,imtiazvarvani2014@gmail.com,707206599
TRA2/01/B01/56,NEW OVERSEAS CHINESE RESTAURANT,Mombasa,Mombasa,Restaurants,AQUAKENYA@GMAIL.COM,770095777
TRA2/01/B01/57,HUSSAINI BARBEQUE & RESTAURANT,Mombasa,Mombasa,Restaurants,SAMSIFA@HOTMAIL.COM,722793661
TRA2/01/B01/73,FORODHANI SEAFRONT RESTAURANT,Mombasa,Mombasa,Restaurants,FORADHANISFR@GMAIL.COM,0
TRA2/01/B01/97,"TAMARIND RESTAURANT ",Mombasa,Mombasa,Restaurants,RESERVATIONS.MOMBASA@TAMARIND.CO.KE,713824835
TRA2/01/B01/101,"GARIMELI LTD ",Mombasa,Mombasa,Restaurants,casanova@mombasa-gokart.com,721485247
TRA2/01/B01/112,"QAFFEE POINT LTD ",Mombasa,Mombasa,Restaurants,QAFFEEPOINT1@GMAIL.COM,727204886
TRA2/01/B01/118,"ALISHAAN SEAVIEW RESTAURANT ",Mombasa,Mombasa,Restaurants,"faraanaayusuf@gmail.com ",722849755
TRA2/01/B01/123,MOMBASA BLUE ROOM LTD,Mombasa,Mombasa,Restaurants,info@blueroomonline.com,721786868
TRA2/01/B01/138,"CAFFESERIE LTD ",Mombasa,Mombasa,Restaurants,noelo@cafesserie.com,713337863
TRA2/01/B01/139,FARM TRADERS CAFETERIA,Mombasa,Mombasa,Restaurants,farmtraders8@gmail.com,720944120
TRA2/01/B01/149,RUDOLF RESTAURANTS LTD,Mombasa,Mombasa,Restaurants,safariinn9@gmail.com,722671475
TRA2/01/B01/155,ITZ FLAVOURS,Mombasa,Mombasa,Restaurants,ITZFLAVOURS@HOTMAIL.COM,0
TRA2/01/B01/162,MNKafé Ltd (In The City),Mombasa,Mombasa,Restaurants,mnk@mnkafe.com,702100130
TRA2/01/B01/232,MOMBASA BLUEROOM COMPANY (LIKONI),Mombasa,Mombasa,Restaurants,BLUEROOM@BLUEROOMONLINE.COM,721786868
TRA2/01/B01/247,MOMBASA RAILWAYS GARDEN,Mombasa,Mombasa,Restaurants,WANYOIKE77.GW@GMAIL.COM,722519845
TRA2/01/B01/257,COOL BEANS CAFÉ LIMITED,Mombasa,Mombasa,Restaurants,allan@coolbeans.co.ke,713434492
TRA2/01/B01/271,KINGSTON GRAND HOLDINGS LIMITED,Mombasa,Mombasa,Restaurants,accounts@kingston.co.ke,733666566
TRA2/02/B01/09,RONGAI FAST FOOD BUTCHERY,Kwale,Mombasa,Restaurants,rongaieatinghouse@gmail.com,2.5472E+11
TRA2/02/B01/15,NEW TIMES HOLDINGS TARONGAI ANNEX,Kwale,Mombasa,Restaurants,RONGAIEATINGHOUSE@GMAIL.COM,0
TRA2/02/B01/17,SHIMONI AQUA VENTURES LTD,Kwale,Mombasa,Restaurants,info@pillipipa.com,723840377
TRA2/02/B01/37,KOKKOS CAFÉ LTD (PITA PAN RESTAURANT),Kwale,Mombasa,Restaurants,kokkos.diani@gmail.com,0
TRA2/02/B01/42,"ESTUARY BEACH RESORT AND RESTAURANT ",Kwale,Mombasa,Restaurants,estuarylounge@gmail.com,748325156
TRA3/3/B01/198,VIPINGO RIDGE LTD,Kilifi,Malindi,Restaurants,esther@vipingoridge.com,0
TRA6/47/B01/001,Kipevu restaurant limited,Nairobi,Nakuru,Restaurants,kipevurestaurant@gmail.com,722528838
TRA6/32/B01/007,GILANIS RESTAURANT,Nakuru,Nakuru,Restaurants,gilanis@gilanis.co.ke,708882552
TRA6/32/B01/008,ORIGIN COFFEE HOUSE,Nakuru,Nakuru,Restaurants,info@origincoffe.co.ke,705430000
TRA6/32/B01/014,TIPSY RESTAURANT,Nakuru,Nakuru,Restaurants,tipsy1681@gmail.com,786627008
TRA6/32/B01/016,IPIZ RESTAURANT,Nakuru,Nakuru,Restaurants,ipizrestaurant@gmail,722729887
TRA6/32/B01/148,LA PIEVE RESTAURANT,Nakuru,Nakuru,Restaurants,gilbert.ombeva@lapieveltd.com,2.54722E+11
TRA6/32/B01/161,LEMAS CAFÉ AND BUTCHERY,Nakuru,Nakuru,Restaurants,lemaslimited@gmail.com,725987766
TRA6/32/B01/172,CULTURE MAMBO LOUNGE,Nakuru,Nakuru,Restaurants,Culturemambo2022@gmail.com,706285083
TRA6/32/B01/176,BRADEGATE RESTAURANT-NAKURU,Nakuru,Nakuru,Restaurants,thuocatherine71@gmail.com,722231458
TRA6/32/B01/189,"FRESH MARKET/ASHLEYS EVENTS ",Nakuru,Nakuru,Restaurants,Chegejulie@gmail.com,720590615
TRA6/32/B01/194,AFRITOPIA LTD ( RIFTVALLEY SPURS),Nairobi,Nakuru,Restaurants,lafrItopia@gmail.com,25436156516
TRA6/32/B01/205,CHILIS TAVERN,Nakuru,Nakuru,Restaurants,chilisltd22@gmail.com,721734104
TRA1/47/B01/46498,Carnaval Kenya Limited,Nairobi,Nairobi,Restaurants,lawyer@carnaval.co.ke,2.5411E+11
TRA1/47/B01/46569,MELLIFERA LIMITED,Nairobi,Nairobi,Restaurants,cultivafarms@gmail.com,25470091283
TRA1/34/B01/46690,SWAHILI VIBES,Kajiado,Nairobi,Restaurants,swahilivibes034@gmail.com,797679377
TRA2/1/B02/46763,NYUNGU MOTO,Mombasa,Mombasa,Restaurants,MARIEMAINA40@GMAIL.COM,724297925
TRA2/2/B01/46928,Mvuleni Bar And Restaurant,Kwale,Mombasa,Restaurants,fkassim526@gmail.com,710432536
TRA1/22/B01/47101,MUTHU SOVEREIGN MANAGEMENT LIMITED,Kiambu,Nairobi,Restaurants,gmsec@africamuthuhotelsmgm.com,2.54703E+11
TRA1/22/B01/47132,"CASCADE COMPANY LIMITED ",Kiambu,Nairobi,Restaurants,cascadethika@gmail.com,721342370
TRA3/3/B01/47203,SLICE OF LIFE RESTAURANT,Kilifi,Malindi,Restaurants,shahaluk612@gmail.com,25472574476
TRA1/15/B01/47246,Kazuri Kaseo Merchants & Restaurant Limited-Mwingi,Kitui,Nairobi,Restaurants,kazurikaseomerchantsltd@yahoo.com,721357496
TRA1/15/B01/47251,Kazuri Kaseo Merchants & Restaurant Limited-Kitui,Kitui,Nairobi,Restaurants,kazurikaseomerchantsltd@yahoo.com,721357496
TRA1/22/B02/47258,THE BUTLER CUISINE LIMITED,Kiambu,Nairobi,Restaurants,thebutlerkenya@gmail.com,703889804
TRA4/27/B01/47277,Rupa Chowpaty Limited,Uasin Gishu,Eldoret,Restaurants,rupachowpatylimited@gmail.com,713324939
TRA1/15/B01/47417,"MT KENYA WHOLESELLER- FOUR SEASON ",Kitui,Nairobi,Restaurants,mistamwangi@gmail.com,706106903
TRA1/22/B01/47475,Seven Star Cleaning And Interior Services,Nairobi,Nairobi,Restaurants,sevenstarcleaningltd@gmail.com,726525282
TRA1/47/B01/47477,AROMAH CATERING SERVICES,Nairobi,Nairobi,Restaurants,AROMAHTHERESTAURANT1@GMAIL.COM,722815977
TRA1/47/B01/47572,KILIMANJARO BISTRO LIMITED,Nairobi,Nairobi,Restaurants,mohaze42@gmail.com,25472694840
TRA5/46/B01/003,HENRI & CULTURE GARDENS RESORT,Nyamira,Kisumu,Restaurants,henriresort@gmail.com,2.54785E+11
TRA5/42/B01/001,QUICK MART LIMITED DELI-OGINGA ODINGA,Kisumu,Kisumu,Restaurants,info@quickmart.co.ke,726666900
TRA5/42/B01/007,AL NOOR CAFETERIA,Kisumu,Kisumu,Restaurants,alnoorcafeteria@yahoo.com,722802894
TRA5/42/B01/008,KHETIAS SUPERMARKET,Kisumu,Kisumu,Restaurants,info@khetia.com,789126875
TRA5/42/B01/020,MONIXS RESTAURANT,Kisumu,Kisumu,Restaurants,sallymmata@yahoo.com,723878187
TRA5/42/B01/023,DUNGA HILL CAMP,Kisumu,Kisumu,Restaurants,dungahillcamp@gmail.com,2.54723E+11
TRA5/42/B01/024,QUICK MART LIMITED DELI-KONDELE,Kisumu,Kisumu,Restaurants,info@quickmart.co.ke,726666900
TRA5/42/B01/025,QUIK MART LIMITED DELI-MAYFAIR,Kisumu,Kisumu,Restaurants,info@quickmart.co.ke,726666900
TRA5/42/B01/035,OLYMPIA BAR AND RESTAURANT,Kisumu,Kisumu,Restaurants,maryodera1956@yahoo.com,729434870
TRA5/42/B01/063,KISUMU AIRPORT CATERING SERVICES,Kisumu,Kisumu,Restaurants,airportcateringservices@gmail.com,726081343
TRA5/42/B01/076,QUICK MART LIMITED DELI-NYALENDA,Kisumu,Kisumu,Restaurants,info@quickmart.co.ke,726666900
TRA5/42/B01/078,DA BAR,Kisumu,Kisumu,Restaurants,reservations@thevichotel.com,25472438773
TRA5/42/B01/081,MASRUR ENTERPRISES LTD,Kisumu,Kisumu,Restaurants,masrurenterprises@gmail.com,721343411
TRA5/42/B01/084,PWANI DISHES,Kisumu,Kisumu,Restaurants,NONE,713997000
TRA5/45/B01/013,OCEAN STAR RESTAURANT,Kisii,Kisumu,Restaurants,"oceanstarlimited15@gmail.com ",713491000
TRA5/45/B01/033,IMPACT CAFE HOTEL,Kisii,Kisumu,Restaurants,impactcafe45@gmail.com,728110540
TRA5/37/B01/012,KUKU JOINT RESTAURANT,Kakamega,Kisumu,Restaurants,amazonhotel14@gmail.com,711592174
TRA5/37/B01/014,COUNTY BAR AND RESTAURANT,Kakamega,Kisumu,Restaurants,NONE,755657308
TRA5/43/B01/010,"TRAVELLERS   HOTEL ",Homa Bay,Kisumu,Restaurants,akothnaomy400@gmail.com,716987835
TRA5/43/B01/014,GLORY HOTEL,Homa Bay,Kisumu,Restaurants,elijahjumajagero@gmail.com,715425831
TRA5/39/B01/004,PRECIOUS GEMINI ENTERPRISES,Bungoma,Kisumu,Restaurants,simiyumakokha@gmail.com,712232981
" TRA4/26/B01/001",The Ark Restaurant,Trans-Nzoia,A,Restaurants,k.samji@yahoo.comull,700002514
TRA4/ 27/ B01/252,LILLY FAST FOODS,Uasin Gishu,Eldoret,Restaurants,null,721880028
TRA4/24/B01/003,Yassin Hotel,West Pokot,Eldoret,Restaurants,magutkadija@gmail.com,728588353
TRA4/26/B01/005,Y2 Nova Bar & Restaurant,Trans-Nzoia,Eldoret,Restaurants,whytwoy2@yahoo.com,25473405380
TRA4/26/B01/025,Sweet Waters Munyaka,Trans-Nzoia,Eldoret,Restaurants,MUCHORIIBRAHIM@GMAIL.COM,25472398836
TRA4/26/B01/048,Makuti Springs,Trans-Nzoia,Eldoret,Restaurants,makutisprings@gmail.com@gmail,723061111
TRA4/26/B01/057,Gigabites-Kitale,Trans-Nzoia,Eldoret,Restaurants,null,723033975
TRA4/26/B01/063,Belasco Platinum,Trans-Nzoia,Eldoret,Restaurants,jumaalvine425@gmail.com,724038007
TRA4/26/B02/004,Lilian Restaurant,Trans-Nzoia,Eldoret,Restaurants,marywatere10@gmail.com,2.54799E+11
TRA4/27/B01/012,Inner Harbour Resort,Uasin Gishu,Eldoret,Restaurants,innerhabour5@gmail.com,722551821
TRA4/27/B01/020,Bakers Point,Uasin Gishu,Eldoret,Restaurants,juzer@bakerspointkenya.com,703786052
TRA4/27/B01/038,Sunjeel Palace,Uasin Gishu,Eldoret,Restaurants,alpeshpateleld@gmail.com,720554747
TRA4/27/B01/050,Siam Restaurant,Uasin Gishu,Eldoret,Restaurants,siamlimited@gmail.com,723647529
TRA4/27/B01/059,Landmark Choice Chomazone,Uasin Gishu,Eldoret,Restaurants,Janecheropmalakwen@gmail.com,701543102
TRA4/27/B01/067,New Airport Bar & Restaurant,Uasin Gishu,Eldoret,Restaurants,davidmwangi960@gmail.com,722663527
TRA4/27/B01/069,Taiberias Café,Uasin Gishu,Eldoret,Restaurants,null,716766600
TRA4/27/B01/073,Better Health Restaurant,Uasin Gishu,Eldoret,Restaurants,vickychepkurui92@gmail.com,729572024
TRA4/27/B01/088,METRO PARIS HOTEL,Uasin Gishu,Eldoret,Restaurants,kiharaflo70@gmail.com,25471749731
TRA4/27/B01/091,Rail View Resort,Uasin Gishu,Eldoret,Restaurants,null,722791040
TRA4/27/B01/095,Kongasis Inn,Uasin Gishu,Eldoret,Restaurants,null,715439616
TRA4/27/B01/098,Turbo Western Comfort,Uasin Gishu,Eldoret,Restaurants,null,700019666
TRA4/27/B01/107,Kimwa Delicious,Uasin Gishu,Eldoret,Restaurants,yegopeter87@gmail.com,791440466
TRA4/27/B01/108,Members Premier Restaurant,Uasin Gishu,Eldoret,Restaurants,kimaruwycliffe@gmail.com,726779807
TRA4/27/B01/110,Giga Bite Restaurant,Uasin Gishu,Eldoret,Restaurants,robertnabiswa82@gmail.com,759595835
TRA4/27/B01/114,Zaika Lounge,Uasin Gishu,Eldoret,Restaurants,zaikalimited@Gmail.com,700197388
TRA4/27/B01/135,Calabash Glorious,Uasin Gishu,Eldoret,Restaurants,timcalabash@gmail.com,725832132
TRA4/27/B01/136,Belasco Restaurant,Uasin Gishu,Eldoret,Restaurants,belascolounge1@gmail.com,724038007
TRA4/27/B01/148,Budget Lounge,Uasin Gishu,Eldoret,Restaurants,harrymule2011@gmail.com,721612110
TRA4/27/B01/184,Grand Miarmir,Uasin Gishu,Eldoret,Restaurants,null,798981814
TRA4/27/B01/187,Acorn To Oak Ventures Ltd.,Uasin Gishu,Eldoret,Restaurants,"acorntooakventures@gmail.com ",736520052
TRA4/27/B01/196,Jamia Café,Uasin Gishu,Eldoret,Restaurants,dirishkao@gmail.com,735169296
TRA4/27/B01/203,City Park Hotel,Uasin Gishu,Eldoret,Restaurants,hezronkiprop@gmail.com,727925376
TRA4/27/B01/219,VEG CURRIES ELDORET,Uasin Gishu,Eldoret,Restaurants,vegcurries@gmail.com,729901878
TRA4/27/B01/221,MIYAKO CAFÉ,Uasin Gishu,Eldoret,Restaurants,null,722293237
TRA4/27/B01/225,DINNER HOTEL,Uasin Gishu,Eldoret,Restaurants,null,715589036
TRA4/27/B01/226,CLEOPATRAS RESTAURANT,Uasin Gishu,Eldoret,Restaurants,null,719434480
TRA4/27/B01/228,SUNDROPS CAFÉ,Uasin Gishu,Eldoret,Restaurants,null,722972908
TRA4/27/B01/242,DOUBLE DREAMS RESTAURANT,Uasin Gishu,Eldoret,Restaurants,davidmwangi960@gmail.com,722663527
TRA4/27/B01/248,ELDO CHICK AND GRILL R. NGALA,Uasin Gishu,Eldoret,Restaurants,null,720823092
TRA4/27/B01/264,MUBARAK CAFÉ,Uasin Gishu,Eldoret,Restaurants,ifrahadan041@gmail.com,727019197
TRA4/27/B01/270,BLUE LOUNGE,Uasin Gishu,Eldoret,Restaurants,kimaruwycliffe@gmail.com,0
TRA4/27/B01/278,SARONA CLUB,Uasin Gishu,Eldoret,Restaurants,baibaiagencies@gmail.com,720812222
TRA4/27/B01/279,CLUB NOVA,Uasin Gishu,Eldoret,Restaurants,baibaiagencies@gmail.com,720812222
TRA4/27/B01/283,KWA BHUPE ENTERPRISE,Uasin Gishu,Eldoret,Restaurants,tailorb1963@gmail.com,722350343
TRA4/27/B01/289,YAAVI VENTURES KENYA LTD,Uasin Gishu,Eldoret,Restaurants,yaaviventures2019@gmail.com,742222327
TRA4/27/B01/292,RIVERVALE HOLDINGS,Uasin Gishu,Eldoret,Restaurants,slelei@stlukesorthopaedics.com,718580585
TRA4/27/B01/307,Black Nectar (Iten Rd),Uasin Gishu,Eldoret,Restaurants,nectarlounge312@gmail.com,728355221
TRA4/27/B01/308,"Naveen Lounge ",Uasin Gishu,Eldoret,Restaurants,null,722591623
TRA4/27/B01/320,Underground Village Ltd,Uasin Gishu,Eldoret,Restaurants,erastokip48@gmail.com,713710898
TRA4/27/B01/321,Garden Picks Farm Produce,Uasin Gishu,Eldoret,Restaurants,juliebarmasai@gmail.com,738300134
TRA4/27/B01/325,"Vaxx One Thousand Ltd ",Uasin Gishu,Eldoret,Restaurants,vaxxonethousand@gmail.com,2.54722E+11
TRA4/27/B01/329,"THE LOBO VILLAGE LIMITED ",Uasin Gishu,Eldoret,Restaurants,null,726017055
TRA4/27/B01/332,Ceasers Water Front,Uasin Gishu,Eldoret,Restaurants,null,724020080
TRA4/27/B01/334,Villa Dreams,Uasin Gishu,Eldoret,Restaurants,lagatnoor@gmail.com,726776649
TRA4/27/B01/336,DRIPS GRILLL VIP/NYOTA SHADES LIMITED,Uasin Gishu,Eldoret,Restaurants,damaapiloy@gmail.com,710674152
TRA4/27/B01/337,Green Forest Restaurant And Coffee House,Uasin Gishu,Eldoret,Restaurants,henrycheboi84@gmail.com,717391868
TRA4/27/B01/341,Origin Coffee House,Uasin Gishu,Eldoret,Restaurants,ninfo@origincoffee.co.ke,795100000
TRA4/27/B01/343,DRIPS SPORTS BAR AND GRILL,Uasin Gishu,Eldoret,Restaurants,null,750226199
TRA4/27/B01/346,Red Lantern,Uasin Gishu,Eldoret,Restaurants,null,"0721 445666 "
TRA4/27/B01/354," NEW MYKES  NEKTAR ENTERPRISE",Uasin Gishu,Eldoret,Restaurants,ceciliahjeptoo@gmail.com,710255943
TRA4/27/B02/008,Shepherd Tavern Bush,Uasin Gishu,Eldoret,Restaurants,null,704223441
TRA4/27/B02/017,THE PRIME JUNCTION BAR AND RESTAURANT LTD,Uasin Gishu,Eldoret,Restaurants,chesospeter9@gmail.com,2.54723E+11
TRA4/27/B02/018,Members Butchery,Uasin Gishu,Eldoret,Restaurants,kimaruwycliffe@gmail.com,726779807
TRA4/28/B01/001,County Inn Bar And Restaurant,Elgeyo-Marakwet,Eldoret,Restaurants,emmyjebiwott77@gmail.com,724232665
TRA4/29/B01/010,Maita Lux Garders Resort,Nandi,Eldoret,Restaurants,chebetcaroline78@gmail.com,723099733
TRA4/29/B01/014,Kipchipmatt Hotel kapsoit,Kericho,Eldoret,Restaurants,kipchimchimenterprises@gmail.com,780560000
TRA4/29/B01/027,Mosoriot Gardens,Nandi,Eldoret,Restaurants,nancyngetichh@gmail.com,720587147
TRA4/29/B01/034,Tiryo Grill,Nandi,Eldoret,Restaurants,tsbak@outlook.com,795508651
TRA4/29/B01/052,H.B Prestige Restaurant,Nandi,Eldoret,Restaurants,edwinbarasa79@gmail.com,722410218
TRA4/29/B01/058,Royal Grill Hotel,Nandi,Eldoret,Restaurants,royalgrillkapsabet2022@gmail.com,724399399
TRA4/29/B02/016,Edens Lounge,Nandi,Eldoret,Restaurants,edenspringscoltd@gmail.com,713449449
TRA2/01/B01/261,CHOP IT EXPRESS LTD,Mombasa,Mombasa,Restaurants,mo@chopit.net,25473424304
TRA2/02/B01/11,LEONARDOS LTD,Kwale,Mombasa,Restaurants,leonardos.diani@gmail.com,704241497
TRA2/02/B01/23,RESTAURANT SUBTERRAN LIMITED,Kwale,Mombasa,Restaurants,cave@alibarbours.com,714456131
TRA3/3/B01/55127,OKRAM LIMITED,Kilifi,Malindi,Restaurants,markluk612@yahoo.it,791555131
TRA5/45/B01/55197,MAKAO HOTEL,Kisii,Kisumu,Restaurants,dimple21191@gmail.com,2.54703E+11
TRA7/20/B01/55231,NESTLING RESTAURANT,Kirinyaga,Nyeri,Restaurants,Waruimkinyua@gmail.com,729685659
TRA1/1/B02/55242,MAJID AL FUTTAIM HYPERMARKET LTD-PROMANADE,NULL,Nairobi,Restaurants,amarore@mafcarrefour.com,NULL
TRA3/4/B01/55310,SHEMEJI HOTEL HOLA,Tana River,Malindi,Restaurants,SHEMEJIHOTEL@GMAIL.COM,723227903
TRA7/15/B02/55311,"COAL AND GOLD BAR ",Kitui,Nyeri,Restaurants,benjaminkyalo12@gmail.com,2.54721E+11
TRA1/47/B02/55328,Elevn 11 Ltd,Nairobi,Nairobi,Restaurants,thelocationke@gmail.com,792788562
TRA1/16/B02/55388,MATUMATT LIMITED,Machakos,Nairobi,Restaurants,matusuper@yahoo.com,25472587748
TRA2/3/B01/55444,SHABNUU ENTERPRISES,Kilifi,Mombasa,Restaurants,shabbirnurdin@gmail.com,25472191972
TRA4/27/B02/55450,BANIYAS SQUARE LIMITED,Uasin Gishu,Eldoret,Restaurants,baniyassquare@gmail.com,723879168
TRA1/47/B01/55455,BONDS GARDEN RESTAURANT LIMITED,Nairobi,Nairobi,Restaurants,accounts@bondsgarden.com,722728571
TRA5/45/B01/55474,Mount Everest Hotel,Kisii,Kisumu,Restaurants,ptrmagati@gmail.com,746779951
TRA2/1/B01/55578,airport view investment ltd Massawa bar and restaurant,Mombasa,Mombasa,Restaurants,airportview77ltd@gmail.com,746620505
TRA1/47/B01/55627,Coffee & Plant Ltd,Nairobi,Nairobi,Restaurants,podmylk@gmail.com,705883463
TRA4/26/B01/55720,MORDEN BISTRO,Trans-Nzoia,Eldoret,Restaurants,mordenbistro@gmail.com,722211532
TRA1/13/B02/55737,"MITHERU HILL TOP LIMITED ",Tharaka-Nithi,Nairobi,Restaurants,mamwemi@yahoo.co.uk,721465859
TRA4/27/B01/55752,RESTOPAK LOUNGE AND GRILL,Uasin Gishu,Eldoret,Restaurants,maiyoej@gmail.com,729912152
TRA4/27/B01/018,THE BAKERS YARD,Uasin Gishu,Eldoret,Restaurants,eldobakersyard@gmail.com,0
TRA6/32/B01/55935,Jimmy's Chomabite Limited,Nakuru,Nakuru,Restaurants,skuria09@gmail.com,721893342
TRA6/32/B02/55955,Jimmy's Chomabite Limited,Nakuru,Nakuru,Restaurants,skuria09@gmail.com,721893342
TRA1/47/B01/55979,THE GRACEFUL CHINESE RESTAURANT GTC,Nairobi,Nairobi,Restaurants,1070915783@qq.com,717373369
TRA1/47/B01/55982,THE GRACEFUL CHINESE RESTAURANT LANGATA,Nairobi,Nairobi,Restaurants,1070915783@qq.com,717373369
TRA5/38/B01/56052,POLA HOMEPARK HOTEL,Vihiga,Kisumu,Restaurants,abelojango90@gmail.com,726464674
TRA5/42/B01/56055,LALU'S FAST FOOD LTD.,Kisumu,Kisumu,Restaurants,"lalufastfood2018@gmail.com ",713060300
TRA4/27/B01/56092,Funfair lounge ltd,Uasin Gishu,Eldoret,Restaurants,panvilalounge@gmail.com,777475296
TRA4/27/B01/56097,NDUPAWA PRESTIGE LTD,Uasin Gishu,Eldoret,Restaurants,ndupawahotels2019@gmail.com,2.54722E+11
TRA4/27/B01/56111,Romani Outdoor Events Limited,Uasin Gishu,Eldoret,Restaurants,romanioutdoor@gmail.com,721207895
TRA1/47/B01/56154,GAKINDU RESTAURANT,Nairobi,Nairobi,Restaurants,rwachira070@gmail.com,2.54727E+11
TRA4/27/B01/56161,THE WELL HOLDINGS LIMITED,Uasin Gishu,Eldoret,Restaurants,accounts@thewell.co.ke,791179880
TRA2/2/B01/56162,"Funky Monkey Ventures ",Kwale,Mombasa,Restaurants,funkymonkeydiani@gmail.com,742794527
TRA4/27/B02/56190,Jedina Hotel,Uasin Gishu,Eldoret,Restaurants,jedinainvestmentltd@gmail.com,722636544
TRA6/33/B01/56253,"ACACIA RESORT ",Narok,Nakuru,Restaurants,tituskaruri62@gmail.com,2.54723E+11
TRA2/1/B01/56267,"Mikma Bar and Restaurant ",Mombasa,Mombasa,Restaurants,Damarismaseki@gmail.com,2.54725E+11
TRA3/3/B02/56311,MUMTAZ CAFE,Kilifi,Malindi,Restaurants,flyoverlink@gmail.com,2.54715E+11
" TRA1/47/B01/603",OPEN HOUSE RESTAURANT LIMITED,Nairobi,A,Restaurants,OPENHOUSE.RESTAURANT@GMAIL.COM,727726345
TRA2/1/B02/56375,PRIDEINN FLAMINGO BEACH RESORT LIMITED,Mombasa,Mombasa,Hotels,hro@flamingobeach.co.ke,793070921
TRA6/32/B02/56453,CURRY ON RESTAURANT,Nakuru,Nakuru,Restaurants,wesongastanley18@gmail.com,25472578057
TRA3/5/B01/56493,WHISPERS BARAKA LTD,Lamu,Malindi,Restaurants,barakalamu@yahoo.com,702879917
TRA4/27/B01/56496,Spass Resort,Uasin Gishu,Eldoret,Restaurants,spassresort@gmail.com,722317299
TRA4/26/B01/56556,CANAAN RESTAURANT,Trans-Nzoia,Eldoret,Restaurants,martkeya@yahoo.com,727357552
TRA1/22/B01/56613,Kiambethu Farm,Kiambu,Nairobi,Restaurants,info@kiambethufarm.co.ke,25472929089
TRA4/27/B01/56684,"THE CLOUD NINE PLACE ",Uasin Gishu,Eldoret,Restaurants,cloudrestaurant@gmail.com,790162676
TRA6/32/B01/56800,Urban Grade Dining,Nakuru,Nakuru,Restaurants,kiariesusan2@gmail.com,715557481
TRA2/1/B01/56954,BOLLYWOOD BITES LIMITED,Mombasa,Mombasa,Restaurants,tax@bollywoodbites.co.ke,733637099
TRA6/32/B01/56962,BAVA RESTAURANT LIMITED,Nakuru,Nakuru,Restaurants,abdikadirahmedibrahim@yahoo.com,725230695
TRA1/47/B01/893,HOSPITALITY FOODS PRIVATE LTD - SGR NAIROBI,Nairobi,Nairobi,Restaurants,hospitalityfoods@gmail.com,25473100006
TRA2/6/B01/56999,TAMRAH RESTAURANT LTD,Taita-Taveta,Mombasa,Restaurants,petrozenltd@gmail.com,726234466
" TRA7/21/B01/77",BETA PLACE RESTAURANT,Murang’a,A,Restaurants,betapetroleum18@gmail.com,25472196932
TRA6/35/B02/57049,KIPCHIMCHIM WHOLESALERS LIMITED-teaview hotel,Kericho,Nakuru,Guest Houses,Kipchimattwholesalers@gmail.com,722745814
TRA3/5/B01/57064,SEAFRONT CAFE,Lamu,Malindi,Restaurants,miamiji2000@yahoo.co.uk,728711832
TRA6/32/B01/57084,safaricafe,Nakuru,Nakuru,Restaurants,rozaghouse@gmail.com,726545496
TRA6/32/B01/57099,THE PARTY ISLAND LTD,Nakuru,Nakuru,Restaurants,thepartyislandlimited@gmail.com,795569477
TRA1/47/B02/57118,MOLLINE TRADERS LTD,Nairobi,Nairobi,Restaurants,rhinototal@gmail.com,700090583
TRA3/3/B01/57210,ALF-SHUKRAN,Kilifi,Malindi,Restaurants,MOHAMEDMOODY811@GMIL.COM,715731572
TRA6/33/B01/57322,LYNSON AFRICA RESORT,Narok,Nakuru,Restaurants,reservations@lynsonafricaresort.com,2.54741E+11
TRA2/1/B01/57327,TAWA AND WOK LTD,Mombasa,Mombasa,Restaurants,OMAGWADARLENE@GMAIL.COM,731857156
TRA3/3/B01/57350,Maasaindian Beach Restaurant,Kilifi,Malindi,Restaurants,selinaiha@yahoo.com,712151723
TRA7/12/B01/145,The Legacy by J. Kirimi,Meru,Nyeri,Restaurants,thelegacymeru@gmail.com,0
TRA3/3/B01/57369,Saltys Floating Enterprise Limited,Kilifi,Malindi,Restaurants,saltys.kilificreek@gmail.com,708587545
TRA6/36/B01/57380,FAMOUS GATES BOMET TOWN,Bomet,Nakuru,Restaurants,famousgatesbmt@gmail.com,721468606
TRA6/35/B01/57381,KIPCHIMCHIM WHOLESALERS LIMITED-CENTRAL BRANCH,Kericho,Nakuru,Restaurants,Kipchimattwholesalers@gmail.com,722745814
TRA1/17/B01/57394,MARY SHALI,Makueni,Nairobi,Restaurants,faizazaithun@gmail.com,713921910
TRA6/35/B01/57406,KIPCHIMCHIM WHOLESALERS LIMITED-GREENSQUARE BRANCH,Kericho,Nakuru,Restaurants,Kipchimattwholesalers@gmail.com,708268647
TRA6/35/B02/57409,KIPCHIMCHIM WHOLESALERS LIMITED-BROOKE DELI,Kericho,Nakuru,Restaurants,Kipchimattwholesalers@gmail.com,708268647
TRA6/47/B01/57433,THE GOVERNOR ENTERPRISES LTD,Nairobi,Nakuru,Restaurants,governorlimited@gmail.com,724840420
TRA6/35/B02/57472,AUBERGINE RESTAURANT,Kericho,Nakuru,Restaurants,accounts@aubergine-ke.com,723568261
TRA5/39/B01/009,EARTHLINK VENTURES LIMITED,Bungoma,Kisumu,Restaurants,wanguimarry176@gmail.com,724268085
TRA6/30/B01/57597,BARINGOLINE PARADISE HOTEL LIMITED,Baringo,Nakuru,Restaurants,mawaric09@yahoo.com,724364381
TRA7/20/B01/57599,EMMARTEX HAVEN HOTEL,Kirinyaga,Nyeri,Restaurants,dkimotho12@gmail.com,722945973
TRA7/14/B01/57603,EMBU FOOD PLUG,Embu,Nyeri,Restaurants,kenzanda@gmail.com,725554406
TRA1/17/B01/57709,TALEH HOTEL,Makueni,Nairobi,Restaurants,mohamedguhad02@gmail.com,722566556
TRA6/35/B01/57712,WESSYDE LOUNGE LIMITED,Kericho,Nakuru,Restaurants,info@wessydelounge.com,727014111
TRA5/44/B01/57812,HOTEL JOFA LTD,Migori,Kisumu,Restaurants,info@hoteljofa.co.ke,722418924
TRA2/1/B01/57944,COSTON FAST FOOD RESTAURANT LIMITED,Mombasa,Mombasa,Restaurants,COSTONFASTFOODRESTAURANT23@GMAIL.COM,25479787832
TRA3/3/B01/57945,PIZZA ROVER,Kilifi,Malindi,Restaurants,twariqahmed81@gmail.com,759973399
TRA4/27/B02/58061,ABAN TRIO VENTURES T/A ABAN LOUNGE,Uasin Gishu,Eldoret,Restaurants,kiendimunyaka@gmail.com,722390972
TRA1/15/B01/58096,SIGNAL GARDEN HOTEL,Kitui,Nairobi,Restaurants,hotelsignal@gmail.com,722653466
TRA6/35/B02/58139,MIAMI GREEN RESORT,Kericho,Nakuru,Hotels,Resortmiamigreen@gmail.com,746644987
TRA6/18/B01/58148,"LAKE OLBOLOSAT RESORT PARK LODGE ",Nyandarua,Nakuru,Restaurants,resortpark15@gmail.com,742344123
TRA1/15/B01/58178,Dillano Park Hotel,Kitui,Nairobi,Restaurants,dillanoparkh@gmail.com,25472275534
TRA6/35/B02/58200,KIPCHIMATT HOTEL LITEIN,Kericho,Nakuru,Restaurants,kipchimchimenterprises@gmail.com,780560000
TRA2/1/B01/58229,Amigos Beach Bar and Restaurant,Mombasa,Mombasa,Restaurants,bifondo@gmail.com,718598600
TRA2/2/B01/58234,BHAGWANJI CONFECTIONERS,Mombasa,Mombasa,Restaurants,JITUSHETH17@GMAIL.COM,722412760
TRA2/1/B01/58299,"OLYMPIC RESTURANT ",Mombasa,Mombasa,Restaurants,olympic759@gmail.com,25471730860
TRA4/27/B01/58312,"KAREN VIEW HOTEL & BUTCHERY ",Uasin Gishu,Eldoret,Restaurants,kipropkelvin106@gmail.com,713507604
TRA3//B02/58350,Naivas limited deli-MALINDI HIGHWAY,Kilifi,Malindi,Other food and beverage services,onesmus.omari@naivas.co.ke,710110568
TRA1//B02/58351,Naivas limited deli-MERU,Meru,Nairobi,Other food and beverage services,onesmus.omari@naivas.co.ke,710110568
TRA1//B02/58352,Naivas limited deli-NGONG TOWN 2,Nairobi,Nairobi,Other food and beverage services,onesmus.omari@naivas.co.ke,710110568
TRA6//B02/58358,"Naivas limited deli-NAROK ",Narok,Nakuru,Other food and beverage services,onesmus.omari@naivas.co.ke,710110568
TRA5/39/B02/58413,MALAVA ANNEX INN,Bungoma,Kisumu,Restaurants,muchiti2013@gmail.com,723696871
TRA6/35/B01/58435,SIMBA TEA VIEW HOTEL,Kericho,Nakuru,Restaurants,kipchimchimenterprises@gmail.com,724880137
TRA2/1/B02/58498,THE PIXIE.S APERO BAR & LOUNGE LTD,Mombasa,Mombasa,Restaurants,pixiesaperobar@gmail.com,2.54701E+11
TRA6/32/B01/58512,Rogers Restaurant,Nakuru,Nakuru,Restaurants,fortstoneltd@gmail.com,0711 282236
TRA1/47/B01/58528,Pins Entertainment Ltd,Nairobi,Nairobi,Restaurants,accounts@pins.co.ke,114240146
TRA6/32/B01/58535,PLATINUM SEVEN DE LOUNGE LTD,Nakuru,Nakuru,Restaurants,platinum7delounge@gmail.com,746500600
TRA6/32/B01/58563,"Exo Eatery Ltd ",Nakuru,Nakuru,Restaurants,exoeatery@gmail.com,732505075
TRA3/3/B01/58594,non solo gelato ltd business name non solo padel,Kilifi,Malindi,Restaurants,account@nonsologelato.co.ke,727950426
TRA4/26/B01/58607,Koo Koo Good Food,Trans-Nzoia,Eldoret,Restaurants,kookoorailways@gmail.com,712787719
TRA3/3/B01/58608,SPRING TIME LIMITED T/A BABYMARROW,Kilifi,Malindi,Restaurants,springtimeltd2015@gmail.com,25470076670
TRA5/43/B01/58614,MUM'S C.K,Homa Bay,Kisumu,Restaurants,mumsck@gmail.com,722423789
TRA5/37/B01/58617,PICANTE SAHANI DISHES,Kakamega,Kisumu,Restaurants,elizebaeboko@gmail.com,25722227046
TRA7/31/B01/94,SEJAAP INVESTMENTS LIMITED,Nyeri,Nyeri,Restaurants,kimathigenesis@gmail.com,0
TRA1/25/B01/58719,Cheers Guest House Limited,Samburu,Nairobi,Restaurants,cheersguesthouse@yahoo.com,720288195
TRA4/27/B02/58724,MWANZO TROPICAL HOTEL AND BUTCHERY,Uasin Gishu,Eldoret,Restaurants,null,713507604
TRA4/27/B01/58731,KHETIAS GIGA BITES,Uasin Gishu,Eldoret,Restaurants,robertnabiswa82@gmail.com,702531925
TRA4/27/B01/58741,KHETIAS GIGABITE KANDUYI,Uasin Gishu,Eldoret,Restaurants,robertnabiswa82@gmail.com,792431935
TRA4/39/B01/58750,KHETIAS HIGHWAY GIGABITE,Bungoma,Eldoret,Restaurants,robertnabiswa82@gmail.com,704007999
TRA4/47/B01/58766,KHETIAS CROSS ROAD GIGABITE,Nairobi,Eldoret,Restaurants,robertnabiswa82@gmail.com,726643000
TRA7/19/B01/58769,The Nyamachoma Village Limited,Nyeri,Nyeri,Restaurants,lucymugo785@gmail.com,722238667
TRA4/27/B01/58774,SAYEN DELI,Uasin Gishu,Eldoret,Restaurants,null,713120630
TRA4/47/B01/58782,KHETIAS MIREMA GIGABITE,Nairobi,Eldoret,Restaurants,robertnabiswa82@gmail.com,714126299
TRA7/31/B01/58798,The Nyamachoma Village Ltd- Nanyuki,Laikipia,Nyeri,Restaurants,lucymugo785@gmail.com,722238667
TRA4//B02/58799,"NAIVAS LIMITED DELI-ELDORET REFERRAL ",Uasin Gishu,Eldoret,Other food and beverage services,onesmus.omari@naivas.co.ke,710110568
TRA1/47/B01/58804,JAVA KILELESHWA EXPRESS,NULL,Nairobi,Restaurants,videlis.sanya@javahouseafrica.com,NULL
TRA1/47/B01/58832,SIMBISA BRANDS KENYA LTD - HARVEST,Nairobi,Nairobi,Restaurants,customercare@ke-simbisa.com,202363833
TRA1/47/B01/58833,SIMBISA BRANDS KENYA LTD - BANKERS,Nairobi,Nairobi,Restaurants,customercare@ke-simbisa.com,202363833
TRA1/47/B01/58836,SIMBISA BRANDS KENYA LTD - TOM MBOYA,Nairobi,Nairobi,Restaurants,customercare@ke-simbisa.com,202363833
TRA1/47/B01/58838,SIMBISA BRANDS KENYA LTD - SALAMA,Nairobi,Nairobi,Restaurants,customercare@ke-simbisa.com,202363833
TRA1/47/B01/58843,SIMBISA BRANDS KENYA LTD - LUSAKA RD,Nairobi,Nairobi,Restaurants,customercare@ke-simbisa.com,202363833
TRA1/47/B01/58844,SIMBISA BRANDS KENYA LTD - BELLEVUE,Nairobi,Nairobi,Restaurants,customercare@ke-simbisa.com,202363833
TRA1/47/B01/58845,SIMBISA BRANDS KENYA LTD - NGONG RD,Nairobi,Nairobi,Restaurants,customercare@ke-simbisa.com,202363833
TRA1/47/B01/58846,SIMBISA BRANDS KENYA LTD - FOREST EDGE,Nairobi,Nairobi,Restaurants,customercare@ke-simbisa.com,202363833
TRA1/47/B01/58847,SIMBISA BRANDS KENYA LTD - PARKLANDS,Nairobi,Nairobi,Restaurants,customercare@ke-simbisa.com,202363833
TRA1/47/B01/58848,SIMBISA BRANDS KENYA LTD - UNION,Nairobi,Nairobi,Restaurants,customercare@ke-simbisa.com,202363833
TRA1/47/B01/58850,SIMBISA BRANDS KENYA LTD - WAIYAKI,Nairobi,Nairobi,Restaurants,customercare@ke-simbisa.com,202363833
TRA1/47/B01/58851,SIMBISA BRANDS KENYA LTD - WESTLANDS,Nairobi,Nairobi,Restaurants,customercare@ke-simbisa.com,202363833
TRA1/47/B01/58858,SIMBISA BRANDS KENYA LTD - WESTGATE MALL - QSR,Nairobi,Nairobi,Restaurants,customercare@ke-simbisa.com,202363833
TRA1/47/B01/58859,SIMBISA BRANDS KENYA LTD - WESTGATE MALL GRILL SHACK,Nairobi,Nairobi,Restaurants,customercare@ke-simbisa.com,202363833
TRA1/47/B01/58860,SIMBISA BRANDS KENYA LTD - JUNCTION,Nairobi,Nairobi,Restaurants,customercare@ke-simbisa.com,202363833
TRA1/47/B01/58861,SIMBISA BRANDS KENYA LTD - VALLEY ARCADE,Nairobi,Nairobi,Restaurants,customercare@ke-simbisa.com,202363833
TRA1/47/B01/58862,SIMBISA BRANDS KENYA LTD - CAPITAL CENTRE,Nairobi,Nairobi,Restaurants,customercare@ke-simbisa.com,202363833
TRA1/47/B01/58863,SIMBISA BRANDS KENYA LTD - BURUBURU,Nairobi,Nairobi,Restaurants,customercare@ke-simbisa.com,202363833
TRA1/47/B01/58865,SIMBISA BRANDS KENYA LTD - EMBAKASI,Nairobi,Nairobi,Restaurants,customercare@ke-simbisa.com,202363833
TRA2/1/B01/58866,SIMBISA BRANDS KENYA LTD - HABARI,Mombasa,Mombasa,Restaurants,customercare@ke-simbisa.com,202363833
TRA2/1/B01/58867,SIMBISA BRANDS KENYA LTD - CITY MALL,Mombasa,Mombasa,Restaurants,customercare@ke-simbisa.com,202363833
TRA1/47/B01/58872,SIMBISA BRANDS KENYA LTD - RIDGEWAYS MALL,Nairobi,Nairobi,Restaurants,customercare@ke-simbisa.com,202363833
TRA1/47/B01/58874,SIMBISA BRANDS KENYA LTD - DONHOLM,Nairobi,Nairobi,Restaurants,customercare@ke-simbisa.com,202363833
TRA1/47/B01/58875,SIMBISA BRANDS KENYA LTD - LANGATA,Nairobi,Nairobi,Restaurants,customercare@ke-simbisa.com,202363833
TRA1/34/B01/58876,SIMBISA BRANDS KENYA LTD - RONGAI,Kajiado,Nairobi,Restaurants,customercare@ke-simbisa.com,20
TRA1/34/B01/58877,SIMBISA BRANDS KENYA LTD - KITENGELA,Kajiado,Nairobi,Restaurants,customercare@ke-simbisa.com,202363833
TRA7/18/B01/58878,SIMBISA BRANDS KENYA LTD - VIEWPOINT,Nyandarua,Nyeri,Restaurants,customercare@ke-simbisa.com,202363833
TRA1/47/B01/58880,SIMBISA BRANDS KENYA LTD - THIKA ROAD MALL,Nairobi,Nairobi,Restaurants,customercare@ke-simbisa.com,202363833
TRA1/47/B01/58881,SIMBISA BRANDS KENYA LTD - THIKA ROAD MALL CHICKEN INN,Nairobi,Nairobi,Restaurants,customercare@ke-simbisa.com,202363833
TRA2/1/B01/58884,SIMBISA BRANDS KENYA LTD - HAILE SELASSIE,Mombasa,Mombasa,Restaurants,customercare@ke-simbisa.com,202363833
TRA1/47/B01/58885,SIMBISA BRANDS KENYA LTD - ST AUSTIN,Nairobi,Nairobi,Restaurants,customercare@ke-simbisa.com,202363833
TRA1/47/B01/58886,SIMBISA BRANDS KENYA LTD - OJIJO RD,Nairobi,Nairobi,Restaurants,customercare@ke-simbisa.com,202363833
TRA1/22/B01/58887,SIMBISA BRANDS KENYA LTD - ANANAS MALL,Kiambu,Nairobi,Restaurants,customercare@ke-simbisa.com,202363833
TRA1/47/B01/58888,SIMBISA BRANDS KENYA LTD - GARDEN CITY MALL,Nairobi,Nairobi,Restaurants,customercare@ke-simbisa.com,202363833
TRA1/47/B01/58889,SIMBISA BRANDS KENYA LTD - GARDEN CITY MALL GALITOS,Nairobi,Nairobi,Restaurants,customercare@ke-simbisa.com,202363833
TRA1/22/B01/58890,SIMBISA BRANDS KENYA LTD - THIKA BAZAAR,Kiambu,Nairobi,Restaurants,customercare@ke-simbisa.com,202363833
TRA1/47/B01/58892,SIMBISA BRANDS KENYA LTD - UJA - NGONG RD,Nairobi,Nairobi,Restaurants,customercare@ke-simbisa.com,202363833
TRA1/34/B01/58894,SIMBISA BRANDS KENYA LTD - MILELE MALL,Kajiado,Nairobi,Restaurants,customercare@ke-simbisa.com,202363833
TRA1/47/B01/58897,SIMBISA BRANDS KENYA LTD - HIGHVIEW,Nairobi,Nairobi,Restaurants,customercare@ke-simbisa.com,202363833
TRA3/3/B01/58898,SIMBISA BRANDS KENYA LTD - MTWAPA,Kilifi,Malindi,Restaurants,customercare@ke-simbisa.com,202363833
TRA1/47/B01/58900,SIMBISA BRANDS KENYA LTD - SOUTH B,Nairobi,Nairobi,Restaurants,customercare@ke-simbisa.com,202363833
TRA2/1/B01/58901,SIMBISA BRANDS KENYA LTD - LINKS RD,Mombasa,Mombasa,Restaurants,customercare@ke-simbisa.com,202363833
TRA7/21/B01/58902,SIMBISA BRANDS KENYA LTD - MAKUTANO,Murang’a,Nyeri,Restaurants,customercare@ke-simbisa.com,202363833
TRA1/47/B01/58904,SIMBISA BRANDS KENYA LTD - TWO RIVERS - COMPLEX,Nairobi,Nairobi,Restaurants,customercare@ke-simbisa.com,202363833
TRA1/47/B01/58906,SIMBISA BRANDS KENYA LTD - TWO RIVERS - GALITOS,Nairobi,Nairobi,Restaurants,customercare@ke-simbisa.com,202363833
TRA1/16/B01/58908,SIMBISA BRANDS KENYA LTD - SABAKI,Machakos,Nairobi,Restaurants,customercare@ke-simbisa.com,202363833
TRA2/2/B01/58910,SIMBISA BRANDS KENYA LTD - UKUNDA,Kwale,Mombasa,Restaurants,customercare@ke-simbisa.com,202363833
TRA2/1/B01/58913,SIMBISA BRANDS KENYA LTD - BAMBURI,Mombasa,Mombasa,Restaurants,customercare@ke-simbisa.com,202363833
TRA2/1/B01/58915,SIMBISA BRANDS KENYA LTD - MWEMBE TAYARI,Mombasa,Mombasa,Restaurants,customercare@ke-simbisa.com,202363833
TRA1/22/B01/58917,SIMBISA BRANDS KENYA LTD - KIAMBU MALL,Kiambu,Nairobi,Restaurants,customercare@ke-simbisa.com,202363833
TRA1/47/B01/58918,SIMBISA BRANDS KENYA LTD - FOURWAYS,Nairobi,Nairobi,Restaurants,customercare@ke-simbisa.com,202363833
TRA1/22/B01/58919,SIMBISA BRANDS KENYA LTD - DELTA RUIRU,Kiambu,Nairobi,Restaurants,customercare@ke-simbisa.com,202363833
TRA1/47/B01/58921,SIMBISA BRANDS KENYA LTD - AMBASSADEUR,Nairobi,Nairobi,Restaurants,customercare@ke-simbisa.com,202363833
TRA1/47/B01/58922,SIMBISA BRANDS KENYA LTD - 680 MAYHOUS,Nairobi,Nairobi,Restaurants,customercare@ke-simbisa.com,202363833
TRA1/47/B01/58923,SIMBISA BRANDS KENYA LTD - MOUNTAIN VIEW,Nairobi,Nairobi,Restaurants,customercare@ke-simbisa.com,202363833
TRA1/47/B01/58924,SIMBISA BRANDS KENYA LTD - SHELL - KASARANI,Nairobi,Nairobi,Restaurants,customercare@ke-simbisa.com,202363833
TRA1/47/B01/58925,SIMBISA BRANDS KENYA LTD - SHELL - SYOKIMAU,Nairobi,Nairobi,Restaurants,customercare@ke-simbisa.com,202363833
TRA1/47/B01/58927,SIMBISA BRANDS KENYA LTD - WESTGATE MALL OCEAN BASKET,Nairobi,Nairobi,Restaurants,customercare@ke-simbisa.com,202363833
TRA1/22/B01/58928,SIMBISA BRANDS KENYA LTD - KAHAWA SUKARI,Kiambu,Nairobi,Restaurants,customercare@ke-simbisa.com,202363833
TRA1/47/B01/58929,SIMBISA BRANDS KENYA LTD - MIREMA,Nairobi,Nairobi,Restaurants,customercare@ke-simbisa.com,202363833
TRA1/47/B01/58931,SIMBISA BRANDS KENYA LTD - SHELL - SPANNERIGHT,Nairobi,Nairobi,Restaurants,customercare@ke-simbisa.com,202363833
TRA1/47/B01/58932,SIMBISA BRANDS KENYA LTD - GIGIRI,Nairobi,Nairobi,Restaurants,customercare@ke-simbisa.com,202363833
TRA1/47/B01/58934,SIMBISA BRANDS KENYA LTD - SHELL - KILIMANI,Nairobi,Nairobi,Restaurants,customercare@ke-simbisa.com,202363833
TRA1/47/B01/58935,SIMBISA BRANDS KENYA LTD - OLA - KILIMANI,Nairobi,Nairobi,Restaurants,customercare@ke-simbisa.com,202363833
TRA1/47/B01/58936,SIMBISA BRANDS KENYA LTD - OLA LANGATA ROAD,Nairobi,Nairobi,Restaurants,customercare@ke-simbisa.com,202363833
TRA5/42/B01/58937,SIMBISA BRANDS KENYA LTD - MEGA PLAZA,Kisumu,Kisumu,Restaurants,customercare@ke-simbisa.com,202363833
TRA5/42/B01/58938,SIMBISA BRANDS KENYA LTD - UNITED MALL,Kisumu,Kisumu,Restaurants,customercare@ke-simbisa.com,202363833
TRA1/47/B01/58940,SIMBISA BRANDS KENYA LTD - SHELL - KANGUNDO ROAD,Nairobi,Nairobi,Restaurants,customercare@ke-simbisa.com,202363833
TRA6/32/B01/58941,SIMBISA BRANDS KENYA LTD - NAKURU HOUSE,Nakuru,Nakuru,Restaurants,customercare@ke-simbisa.com,202363833
TRA1/47/B01/58942,SIMBISA BRANDS KENYA LTD - IMARA MALL,Nairobi,Nairobi,Restaurants,customercare@ke-simbisa.com,202363833
TRA1/47/B01/58943,SIMBISA BRANDS KENYA LTD - RELIANCE CENTRE,Nairobi,Nairobi,Restaurants,customercare@ke-simbisa.com,202363833
TRA4/27/B01/58944,SIMBISA BRANDS KENYA LTD - HIGHLANDS MALL,Uasin Gishu,Eldoret,Restaurants,customercare@ke-simbisa.com,202363833
TRA1/22/B01/58945,SIMBISA BRANDS KENYA LTD - TOTAL KAMAKIS,Kiambu,Nairobi,Restaurants,customercare@ke-simbisa.com,202363833
TRA4/27/B01/58946,SIMBISA BRANDS KENYA LTD - RUPAS MALL,Uasin Gishu,Eldoret,Restaurants,customercare@ke-simbisa.com,202363833
TRA1/16/B01/58947,SIMBISA BRANDS KENYA LTD - OLA MACHAKOS,Machakos,Nairobi,Restaurants,customercare@ke-simbisa.com,202363833
TRA6/32/B01/58949,SIMBISA BRANDS KENYA LTD - SAFARI CENTRE,Nakuru,Nakuru,Restaurants,customercare@ke-simbisa.com,202363833
TRA1/16/B01/58950,SIMBISA BRANDS KENYA LTD - GREENPARK,Machakos,Nairobi,Restaurants,customercare@ke-simbisa.com,202363833
TRA1/22/B01/58951,SIMBISA BRANDS KENYA LTD - EVERGREEN MALL,Kiambu,Nairobi,Restaurants,customercare@ke-simbisa.com,202363833
TRA1/16/B01/58952,SIMBISA BRANDS KENYA LTD - OLA ATHI RIVER,Machakos,Nairobi,Restaurants,customercare@ke-simbisa.com,202363833
TRA1/22/B01/58953,SIMBISA BRANDS KENYA LTD - SHELL - SIGONA,Kiambu,Nairobi,Restaurants,customercare@ke-simbisa.com,202363833
TRA1/47/B01/58955,SIMBISA BRANDS KENYA LTD - TOTAL KILELESHWA,Nairobi,Nairobi,Restaurants,customercare@ke-simbisa.com,202363833
TRA3/3/B02/58989,"COAST CUISINE ",Kilifi,Malindi,Restaurants,majidhamtut473@gmail.com,25472436160
TRA6/32/B01/58997,Daratim Enterprises Limited,Nakuru,Nakuru,Restaurants,hyrax.shell@gmail.com,727244018
TRA1//B02/59053,QUICK MART LIMITED DELI-KILELESHWA,Nairobi,Nairobi,Other food and beverage services,info@quickmart.co.ke,726666900
TRA1//B02/59054,QUICK MART LIMITED DELI-THOME,Nairobi,Nairobi,Other food and beverage services,info@quickmart.co.ke,726666900
TRA2//B02/59055,QUICK MART LIMITED-NYALI,Mombasa,Mombasa,Other food and beverage services,info@quickmart.co.ke,726666900
TRA1//B02/59056,QUICK MART LIMITED-OUTERING 2,Nairobi,Nairobi,Other food and beverage services,info@quickmart.co.ke,726666900
TRA3/3/B02/59061,BACAMAMU ENTERPRISES,Kilifi,Malindi,Restaurants,bacamamuenterprises@gmail.com,713847387
TRA3/3/B01/59064,BAHATI GELATERIA ITALIANA LIMITED,Kilifi,Malindi,Restaurants,bahatigelateria2018@gmail.com,702397346
TRA5/45/B01/59164,MASHAURI CAFE,Kisii,Kisumu,Restaurants,swelgrp@gmail.com,722858072
TRA7/21/B01/59178,MARMU T/A MARMU RESTAURANT LTD,Murang’a,Nyeri,Restaurants,marmu859@yahoo.com,722898456
TRA2/1/B01/59226,NADEEM'S BARBECUE,Mombasa,Mombasa,Restaurants,nadeemsbarbecue@gmail.com,"0723655748,"
TRA1/47/B01/59252,JAVA LANDSIDE,NULL,Nairobi,Restaurants,videlis.sanya@javahouseafrica.com,NULL
TRA7/19/B01/59257,Hofalem Company Limited,Nyeri,Nyeri,Restaurants,hofalemcompany9@gmail.com,722640980
TRA3/3/B01/59273,MTWAPA PALMS LTD,Kilifi,Malindi,Restaurants,mtwapapalmsltd@gmail.com,722878481
TRA5/45/B01/59301,DRESORT LIMITED,Kisii,Kisumu,Restaurants,DRESORTLIMITED@YAHOO.COM,723997444
TRA5/45/B01/59329,MARE QUALITY FOODS ENTERPRISE,Kisii,Kisumu,Restaurants,MAREFOOD7@GMAIL.COM,700476648
TRA7/21/B02/59331,La Moderna Resort,Murang’a,Nyeri,Restaurants,lamodernaresort@gmail.com,2.54722E+11
TRA3/3/B01/59332,"CLUB BAREEZY ",Kilifi,Malindi,Restaurants,ROZYHOLDING@GMAIL.COM,722898247
TRA6//B01/59333,HYGIENIC BUTCHERY( HIGHWAY),Nakuru,Nakuru,Restaurants,hygienicltd2005@gmail.com,707196479
TRA7/21/B01/59343,FAMOUS T/A MARMU RESTAURANT LTD,Murang’a,Nyeri,Restaurants,marmu859@yahoo.com,722898456
TRA7/21/B01/59354,KEPHUS T/A MARMU RESTAURANT LTD,Murang’a,Nyeri,Restaurants,marmu859@yahoo.com,722898456
TRA3/3/B01/59383,Guddy Kulthum Harbhajan T/A Robison Island Restaurant,Kilifi,Malindi,Restaurants,corinna.birkigt94@gmail.com,768001700
TRA7/21/B01/59424,Stanmatt Cafe Karugia,Murang’a,Nyeri,Restaurants,stanmattsoko@gmail.com,2.54722E+11
TRA3/3/B01/59449,PILIPAN LIMITED,Kilifi,Malindi,Restaurants,obadiah_thiongo@yahoo.com,722861790
TRA5/42/B01/59450,Kituh Moto Resort,Kisumu,Kisumu,Restaurants,carenochanda2030@gmail.com,715374377
TRA7/21/B01/012,Cafe' Japen's,Nyeri,Nyeri,Restaurants,pennywangui@gmail.com,0
TRA5/42/B01/59466,ROYAL CITY HOTEL-GARDENS,Kisumu,Kisumu,Restaurants,cotieno@royalcityhotel.co.ke,2547278999
TRA5/45/B01/59489,MIKE DIPLO,Kisii,Kisumu,Restaurants,DRESORTLIMITED@YAHOO.COM,710708353
TRA7/12/B01/142,Emerald Lounge Ltd,Meru,Nyeri,Restaurants,emeraldloungltd@gmail.com,25472288345
TRA1/47/B01/59552,GOLDEN CROWN HOTEL,Nairobi,Nairobi,Restaurants,simon.mugaa06@gmail.com,717292956
TRA5/42/B02/59571,MAHFUDH ASHUR RESTAURANT,Kisumu,Kisumu,Restaurants,mahfudhashurrestaurant@gmail.com,768885058
TRA3/3/B01/59608,ALMASI BUBBLES INN,Kilifi,Malindi,Restaurants,jacobmutahi@gmail.com,723800114
TRA2/1/B01/59627,Blue Coconut Ltd,Mombasa,Mombasa,Restaurants,raj@bluecoconut.co.ke,700089880
TRA6/32/B01/59655,RIFT FRIES RESTAURANT,Nakuru,Nakuru,Restaurants,rifrfries@yahoo.com,722886664
TRA1/16/B01/132,CAI VENTURES T/A NEW CAI RESORT,Machakos,Nairobi,Restaurants,caiventures20@gmail.com,713042098
TRA6/33/B01/59691,sahara coffee house,Narok,Nakuru,Restaurants,damarisnya@gmail.com,707584324
TRA7/21/B01/59695,NYAMA CHOMA VILLAGE,Murang’a,Nyeri,Restaurants,kajesim2010@gmail.com,710791466
TRA4/27/B01/59711,NICOS LOUNGE,Uasin Gishu,Eldoret,Restaurants,kinalimited@gmail.com,721793013
TRA1/47/B01/59712,EAT N GO LIMITED CSC VILLAGE MARKET,Nairobi,Nairobi,Restaurants,Stephen.Oyugi@Eatngo-kenya.com,714871332
TRA7/21/B02/59740,METUMI GENERATION KLUB,Murang’a,Nyeri,Restaurants,kikasenterprises@gmail.com,722892418
TRA5/39/B01/59751,Highway Shoppers Motel,Bungoma,Kisumu,Restaurants,obaraednah78@gmail.com,723149777
TRA7/21/B01/59769,JANGWANI SAFARI LODGE,Murang’a,Nyeri,Restaurants,jangwanicamp@gmail.com,702703339
TRA4/27/B01/59771,KINA CLUB,Uasin Gishu,Eldoret,Restaurants,kinalimited@gmail.com,721793013
TRA5/45/B02/59777,AL-HUDA HOTEL,Kisii,Kisumu,Restaurants,shaabanmohameddiis@gmail.com,72988100
TRA3/3/B01/59784,KIBIRU EMPORIUM,Kilifi,Malindi,Restaurants,gladwellkibiru@yahoo.com,713237083
TRA5/40/B01/59792,Bliss Park Resort,Busia,Kisumu,Restaurants,vomoyi@gmail.com,25470881504
TRA3/3/B01/59828,Somaki limited,Kilifi,Malindi,Restaurants,somakiltd@gmail.com,717251489
TRA6/32/B01/59829,bellizia,Nakuru,Nakuru,Restaurants,joram89m.jn@gmail.com,25472867384
TRA5/39/B01/59862,DRIPS HOTEL LTD,Bungoma,Kisumu,Restaurants,dripshotellimited@gmail.com,714234905
TRA3/3/B01/59903,Rasta Beach & Restaurant Mayungu,Kilifi,Malindi,Restaurants,mayungubeach@gmail.com,734775496
TRA5/45/B01/59913,LEGENDS ARENA LOUNGE,Kisii,Kisumu,Restaurants,carrenomwenga@gmail.com,2.5472E+11
TRA6/30/B02/59941,KAMCO BARINGO HOTEL,Baringo,Nakuru,Restaurants,komenmeshack14@gmail.com,721677054
TRA6/35/B01/59953,DANSED HOTELS LTD,Kericho,Nakuru,Restaurants,sediangetich@gmail.com,724240135
TRA3/3/B02/59964,NEW COUNTRY CLUB,Kilifi,Malindi,Restaurants,newcountryc@gmail.com,703268511
TRA5/45/B02/59970,COFFEE ANNAN HOTEL,Kisii,Kisumu,Restaurants,senioryahya455@gmail.com,712957753
TRA4/37/B01/59977,KHETIAS KAKAMEGA-GIGABITE,Kakamega,Eldoret,Restaurants,andera@khetia.com,734894608
TRA5/39/B01/60026,ZABIBU RESTAURANT LIMITED,Bungoma,Kisumu,Restaurants,ZABIBURESTAURANT@GMAIL.COM,724348681
TRA5/41/B01/60064,Waterfront @ Uhasi Ltd,Siaya,Kisumu,Restaurants,waterfront.uhasi@gmail.com,25470349161
TRA4/27/B01/60093,BLUE NIGHTFALL LOUNGE AND ACCOMODATION,Uasin Gishu,Eldoret,Restaurants,null,721398425
TRA1/16/B01/125,ROMATOMWI INVESTMENT LTD T/A HORNBILL MACHAKOS,Machakos,Nairobi,Restaurants,nyerilg@gmail.com,722303642
TRA2/3/B01/60129,PUB LAGOONER HOTEL,Kilifi,Mombasa,Restaurants,nzaokari@gmail.com,25426276605
TRA6/35/B01/60130,N'Ngoina Road Kikao Restaurant Limited,Kericho,Nakuru,Restaurants,kikaongoinaroad@gmail.com,722992281
TRA3/3/B01/60171,SAFINA BEACH BAR & GRILL,Kilifi,Malindi,Restaurants,SAFINAHOUSEWATAMU@GMAIL.COM,719214521
TRA4/29/B01/60175,KING SOLOMONS GARDEN,Nandi,Eldoret,Restaurants,karencmutai@gmail.com,25422335401
TRA4/26/B01/60205,FORBES EMPIRE GROUP LTD,Trans-Nzoia,Eldoret,Restaurants,forbesloungeofficial@gmail.com,746868623
TRA1/47/B01/60206,MBUZI FOODS LIMITED T/A MBUZI MUNCH  LAVINGTON BRANCH,Nairobi,Nairobi,Restaurants,golfpark@mbuzimunch.com,792716761
TRA5/42/B01/60224,MASRUR ENTERPRISES LTD,Kisumu,Kisumu,Restaurants,MASRURENTERPRISES@GMAIL.COM,721343411
TRA5/42/B01/60232,New Victoria Hotel,Kisumu,Kisumu,Restaurants,newvictoriahotelksm@gmail.com,768885058
TRA4/23/B02/60248,CRADLE AKAI ECOLODGE KAKUMA LIMITED,Turkana,Eldoret,Restaurants,financecradle20@gmail.com,759399040
TRA7/21/B02/60255,Cafe Zilla,Murang’a,Nyeri,Restaurants,cafezilla0@gmail.com,727111518
TRA5/37/B02/60264,Signature Roots,Kakamega,Kisumu,Restaurants,signatures2022@gmail.com,722687679
TRA7/19/B01/60284,Urban Smoke,Nyeri,Nyeri,Restaurants,urbansmoke.ke@gmail.com,742429111
TRA5/39/B01/60316,HOTEL MUSHROOM,Bungoma,Kisumu,Restaurants,MUSHROOMHOTEL1@GMAIL.COM,2.54723E+11
TRA7/20/B01/60317,Yaya Pizzeria Ltd- Kerugoya,Kirinyaga,Nyeri,Restaurants,yayapizzerialimited@gmail.com,721361980
TRA5/38/B01/60352,FASTER FASTER HOTEL,Vihiga,Kisumu,Restaurants,hotelfasterfaster@gmail.com,712621066
TRA5/45/B01/60354,SIMBA HILLSPARK  HOTEL,Kisii,Kisumu,Restaurants,simbahillspark@gmail.com,783309909
TRA4/29/B02/60355,NEW KING SOLOMON,Nandi,Eldoret,Restaurants,ababrahamkmutai@gmail.com,722335401
TRA5/42/B01/60375,MAHFUDH ASHUR RESTAURANT,Kisumu,Kisumu,Restaurants,mahfudhashurrestaurant@gmail.com,768885058
TRA5/37/B01/60379,MILIMANI GREENS INVESTMENTS,Kakamega,Kisumu,Restaurants,WOLIMUS@YAHOO.COM,722663275
TRA5/45/B01/60382,EVERYCOIN MATTERS LIMITED-EL-PARAISO GARDEN,Kisii,Kisumu,Restaurants,cmm.maina@gmail.com,721789657
TRA5/42/B02/60403,VICTORIA BAKERY,Kisumu,Kisumu,Restaurants,victoriabakeryksm@gmail.com,768885058
TRA7/19/B01/60427,Yaya Pizzeria Limited- Nyeri,Nyeri,Nyeri,Restaurants,yayapizzerialimited@gmail.com,721361980
TRA5/42/B02/60443,VICTORIA BAKERY,Kisumu,Kisumu,Restaurants,victoriabakeryksm@gmail.com,768885058
TRA1/47/B02/60600,Gibprez Investment T/A Mugg & Bean Kimathi street,Nairobi,Nairobi,Restaurants,kImathitss22@gmail.com,0
TRA1/47/B01/60608,JEBY ENTERPRISES / MUGG & BEAN NGONG RD,Nairobi,Nairobi,Restaurants,ngongroadtss22@gmail.com,721461560
TRA1/47/B02/60610,DORIAN ENTERPRISE/MUGG BEAN MOMBASA ROAD,Nairobi,Nairobi,Restaurants,totalenergiesmuggbean@gmail.com,720464576
TRA1/47/B02/60622,NICTAS ENTERPRISE,Nairobi,Nairobi,Restaurants,abctotalenergies@gmail.com,721756403
TRA4/26/B02/60625,SAROZ GARDENS AND RESORT,Trans-Nzoia,Eldoret,Restaurants,SAROZGARDENS@GMAIL.COM,725852221
TRA1/47/B01/60630,ZASHA INVESTMENTS T/A MUGG&BEAN,Nairobi,Nairobi,Restaurants,hurlinghamtess@gmail.com,722372158
TRA1/47/B02/60632,"TOPSERVE  INVESTMENT T/A  MUGG  & BEAN   OTM  STATEHOUSE ",Nairobi,Nairobi,Restaurants,statehousetess@gmail.com,725428983
TRA5/38/B02/60655,BANJA MAINZ RESORT,Vihiga,Kisumu,Restaurants,mbulikajoash@yahoo.com,2.54723E+11
TRA4/27/B01/60691,BARRY'S BISTRO  LIMITED,Uasin Gishu,Eldoret,Restaurants,bistrobarrys@gmail.com,757533945
TRA6/33/B01/60868,"CISMARA ACACIA MOTEL ",Narok,Nakuru,Restaurants,cismaraacacia@gmail.com,720293654
TRA6/31/B02/60881,EASTWARD GARDEN HOTELS LTD,Laikipia,Nakuru,Restaurants,eastwardhotel@gmail.com,727489968
TRA1/16/B01/60918,COVENT HILLS GUEST HOUSE,Machakos,Nairobi,Restaurants,coventhills14@gmail.com,742307855
TRA1/47/B01/620,ZEN GARDEN LIMITED,Nairobi,Nairobi,Restaurants,hr@zengarden.co.ke,0
TRA1/47/B02/61041,DEQUALMAK ENTERPRISE T/A TOTAL GIGIRI MUGG& BEAN,Nairobi,Nairobi,Restaurants,gigiritotal@gmail.com,0721 909177
TRA4/26/B01/055,Chairman's Lounge,Trans-Nzoia,Eldoret,Restaurants,nnamandanasila@gmail.com,722631459
TRA1/47/B01/61111,Mintque Company Ltd,Nairobi,Nairobi,Restaurants,accounts@wildlycoffee.com,732348872
TRA6/32/B01/61116,SPACE NEXT DOOR LTD,Nakuru,Nakuru,Restaurants,spacenxtdoorltd@gmail.com,726953142
TRA5/45/B01/61146,EVERYCOIN MATTERS LIMITED-SAIMA VILLAGE INN,Kisii,Kisumu,Restaurants,cmm.maina@gmail.com,721789657
TRA1/47/B01/61167,PRONTO CATERING LIMITED - CITY HOUSE,Nairobi,Nairobi,Restaurants,prontocafe2015@gmail.com,721909085
TRA1/47/B01/61173,PRONTO CATERING LIMITED - St. ELLIES,Nairobi,Nairobi,Restaurants,prontocafe2015@gmail.com,721909085
TRA1/47/B01/61175,PRONTO CATERING LIMITED - UCHUMI HOUSE,Nairobi,Nairobi,Restaurants,prontocafe2015@gmail.com,721909085
TRA4/23/B01/61269,ERAIT PENSION RESORT,Turkana,Eldoret,Restaurants,eraitpension@gmail.com,712895540
TRA5/42/B01/61328,ALKY LOUNGE,Kisumu,Kisumu,Restaurants,alkyloungelimited@gmail.com,721393037
TRA6/32/B01/61380,OTHAYA ANNEX RESTAURANT,Nakuru,Nakuru,Restaurants,othayaannex@gmail.com,700469212
TRA1/47/B01/61382,Grand Trine Ltd T/A AJode dishes,Nairobi,Nairobi,Restaurants,BENX_87@YAHOO.COM,0
TRA4/27/B02/61389,SAILORS PUB,Uasin Gishu,Eldoret,Restaurants,null,711311065
TRA4/27/B01/61394,VIESTA RESTAURANT,Uasin Gishu,Eldoret,Restaurants,joelagat@gmail.com,722271142
TRA5/45/B01/61424,SWAN VALLEY LOUNGE & RESTAURANT LIMITED,Kisii,Kisumu,Restaurants,dgisemba@gmail.com,720333009
TRA1/47/B01/61549,FLAVOR TOWN CAFE-KILIMANI,Nairobi,Nairobi,Restaurants,mromar980@gmail.com,796000090
TRA1/47/B01/61554,FLAVOR TOWN CAFE-IMARA,Nairobi,Nairobi,Restaurants,mromar980@gmail.com,701000090
TRA1/47/B01/61555,"FLAVOR TOWN CAFE-EASTLEIGH ",Nairobi,Nairobi,Restaurants,mromar980@gmail.com,701000090
TRA2/2/B02/61609,Madeira Terminal Two Limited,Kwale,Mombasa,Restaurants,madeiraterminaltwo@gmail.com,793904444
TRA1/47/B01/61644,Number seven ltd,Nairobi,Nairobi,Restaurants,numbersevenltd@gmail.com,721148889
TRA1/47/B01/61646,OLIVE RESTAURANT,Nairobi,Nairobi,Restaurants,info@oliverestaurant.co.ke,716271709
TRA1/47/B01/61834,TOP RISE RESTAURANT LIMITED,Nairobi,Nairobi,Restaurants,omar_heegan@hotmail.com,722588563
TRA6/32/B01/61836,ALPACINO'S GARDEN LOUNGE,Nakuru,Nakuru,Restaurants,alban4likhanga@yahoo.com,722530328
TRA1/47/B01/61839,GREEN VIEW RESTAURANT LIMITED,Nairobi,Nairobi,Restaurants,caesarndegwa@gmail.com,700472248
TRA6/33/B02/61868,ABT INVESTMENT LTD,Narok,Nakuru,Restaurants,abtinvestmentltd@gmail.com,745924716
TRA2/1/B01/61899,ISSAK BARBEQUE LIMITED,Mombasa,Mombasa,Restaurants,issakbarbequelimited@gmail.com,737500220
TRA6/32/B01/61904,ROYAL HOUSE,Nakuru,Nakuru,Restaurants,royalwines384@gmail.com,719698010
TRA1/47/B01/61913,DREAM BEAN HOUSE,Nairobi,Nairobi,Restaurants,dreambeanhouse@gmail.com,724399550
TRA1/47/B01/61931,Napam food planet limited,Nairobi,Nairobi,Restaurants,napamm28@yahoo.com,717166909
TRA1/47/B01/61984,MAIDA RESTAURANT,Nairobi,Nairobi,Restaurants,maidarestaurant23@gmail.com,722515183
TRA4/27/B02/62026,"VANSO LOUNGE ",Uasin Gishu,Eldoret,Restaurants,davidmwangi960@gmail.com,792431824
TRA1/47/B01/62045,YASMIN'S CATERING LIMITED,Nairobi,Nairobi,Restaurants,noorin.jeraj@gmail.com,722651824
TRA1/47/B01/356,Africa future ventures Ltd t/a cheers bakery and cafe,Nairobi,Nairobi,Restaurants,operationscheerskenya@gmail.com,0
TRA1/47/B02/62083,The Cookie Bar,Nairobi,Nairobi,Restaurants,thecookiebarke@gmail.com,746850525
TRA5/45/B01/62119,CHOMA CHOMA AVENUE LOUNGE LIMITED,Kisii,Kisumu,Restaurants,CHOMACHOMAAVENUELOUNGE@GMAIL.COM,769444402
TRA6/32/B01/62134,Neleshwa Bush,Nakuru,Nakuru,Restaurants,neleshwa.bush@gmail.com,745203410
TRA1/47/B02/62229,Tides Flow Ltd,Nairobi,Nairobi,Restaurants,tydesflow@gmail.com,712704676
TRA4/27/B02/113,"TIMBAXO LOUNGE ",Uasin Gishu,Eldoret,Restaurants,xo.timba@gmail.com,726650247
TRA5/38/B01/62322,Starlight Bar & Restaurant,Vihiga,Kisumu,Restaurants,gideonmelly@gmail.com,722223535
TRA1/47/B01/62326,ROSANTOS CATERING LIMITED,Nairobi,Nairobi,Restaurants,rbongera@gmail.com,702548654
TRA1/47/B01/62358,COUNTRY COOKING,Nairobi,Nairobi,Restaurants,JNGUGI2035@GMAIL.COM,721317479
TRA1/17/B01/62363,DORAH VILLA HOTEL,Makueni,Nairobi,Restaurants,astonkasyoki@yahoo.com,2.54701E+11
TRA1/47/B01/62397,COUNTRY COOKING,Nairobi,Nairobi,Restaurants,JNGUGI2035@GMAIL.COM,721317479
TRA1/16/B01/122,KATHIANI INN,Machakos,Nairobi,Restaurants,munyao2012@gmail.com,723398790
TRA7/20/B01/62488,Bistro Sagana,Kirinyaga,Nyeri,Restaurants,Moseblessed@gmail.com,721998579
TRA5/39/B02/62490,COAL CARBON LOGISTICS LTD,Bungoma,Kisumu,Restaurants,BARBRANYANZA99@GMAIL.COM,702464081
TRA1/47/B01/62764,MC FRYS LIMITED - KIAMBU,Nairobi,Nairobi,Restaurants,mcfrysltd@gmail.com,731998998
TRA1/47/B01/62816,ANKARA FOOD COURT LIMITED,Nairobi,Nairobi,Restaurants,ankarafoodcourt@gmail.com,722407000
TRA1/47/B01/62851,"MC FRYS LIMITED-SOUTH C ",Nairobi,Nairobi,Restaurants,mcfrysltd@gmail.com,731998998
TRA6//B01/62876,GIFTMART LITEIN,Kericho,Nakuru,Restaurants,giftmartsupermarket@gmail.com,728331410
TRA6//B01/62877,GIFTMART KERICHO TOWN,Kericho,Nakuru,Restaurants,giftmartsupermarket@gmail.com,728331410
TRA2/1/B02/62909,TOSCANA RESTAURANT AND LOUNGE,Mombasa,Mombasa,Restaurants,toscanarest23@gmail.com,25472681773
TRA2/2/B01/62977,AL YASMIN SWAHILI DISHES,Kwale,Mombasa,Restaurants,divwahomar@gmail.com,720448662
TRA4/27/B01/62980,CALABASH CAFE,Uasin Gishu,Eldoret,Restaurants,kamaurachael15rk@gmail.com,725832132
TRA4/27/B01/63012,"ASMARA LOUNGE- BLUE REIGNCORP LIMITED ",Uasin Gishu,Eldoret,Restaurants,emmungai88@gmail.com,710978530
TRA3/3/B01/63160,"Carwash Bar & Restaurant ",Kilifi,Malindi,Restaurants,raikingi@yahoo.com,769466050
TRA1/47/B01/64257,ARABIAN PALACE,Nairobi,Nairobi,Restaurants,arabianpalace13@gmail.com,746112552
TRA5/42/B01/64345,ANDISA EATERY,Kisumu,Kisumu,Restaurants,naomogello@gmail.com,729489725
TRA4/27/B01/64358,"THE REGENCY HOTEL & BUTCHERY ",Uasin Gishu,Eldoret,Restaurants,hezronkiprop@gmail.com,721629681
TRA4/27/B02/64394,MWANGAZA HOTEL & BUTCHERY,Uasin Gishu,Eldoret,Restaurants,null,703722594
TRA4/27/B01/64620,BIG SPOON CAFE LIMITED-ZION MALL,Uasin Gishu,Eldoret,Restaurants,bigspooncafeltd@gmail.com,720692929
TRA1/47/B01/64660,YOUNG DRIFTERS LOUNGE LTD,Nairobi,Nairobi,Restaurants,youngdrifterslounge@gmail.com,722710970
TRA1/16/B01/64663,TEATOTHOTEL LIMITED,Machakos,Nairobi,Restaurants,ca@teatothotels.com,723724297
TRA1/16/B01/64779,FANELA SPRINGS RESTAURANT,Machakos,Nairobi,Restaurants,joshuahmusyimi@gmail.com,722684548
TRA1/16/B01/64844,SILENT BAR & RESTAURANT,Machakos,Nairobi,Restaurants,johnstonekathuli8@gmail.com,2.54702E+11
TRA1/47/B02/64872,GIBPREZ INVESTMENT,Nairobi,Nairobi,Restaurants,shoptworivers9@gmail.com,704743425
TRA3/3/B01/64973,ZEIPA KENYA LTD,Kilifi,Malindi,Restaurants,zeinajeneby@yahoo.com,710975606
TRA3/3/B01/64982,"AL MANSUR CAFE ",Kilifi,Malindi,Restaurants,salimmahrous25@gmail.com,718851433
TRA1/34/B01/65121,OLE MAJID RESTAURANT,Kajiado,Nairobi,Restaurants,mohamedigbal2015.majid@gmail.com,720531685
TRA4/27/B01/65221,PEARL COFFEE COURT LTD,Uasin Gishu,Eldoret,Restaurants,pearlcoffeecourt@gmail.com,725490147
TRA4/27/B01/65268,CKAYS COFFEE HOUSE,Uasin Gishu,Eldoret,Restaurants,ckayscoffeehouse@gmail.com,712243846
TRA2/1/B01/65272,CHOPIT EXPRESS LIMITED,Mombasa,Mombasa,Restaurants,mo@chopit.net,25473424304
TRA2/47/B01/65347,CHOPIT EXPRESS LIMITED,Nairobi,Mombasa,Restaurants,mo@chopit.net,734243049
TRA4/27/B01/249,SIXTY- FOUR TROPICAL DISHES LTD,Uasin Gishu,Eldoret,Restaurants,64tropicaldishes@gmail.com,0
TRA1/47/B01/65492,HARAKA SAMAKI COMPANY LIMITED,Nairobi,Nairobi,Restaurants,joshuaosero9@gmail.com,726300602
TRA3/3/B01/65522,DABASO CREEK CONSERVATION GROUP,Kilifi,Malindi,Restaurants,dabasocreek@gmail.com,718734367
TRA1/47/B01/65547,MUZI BAKERY CO LTD,Nairobi,Nairobi,Restaurants,1716086909@QQ.COM,794355878
TRA4/27/B01/65577,BEAMS SQUARE,Uasin Gishu,Eldoret,Restaurants,damaapiloy@gmail.com,710674152
TRA4/27/B01/65587,CHIM'S OVEN HOUSE LIMITED,Uasin Gishu,Eldoret,Restaurants,null,719837341
TRA6/32/B01/65589,The Lawns Restaurant,Nakuru,Nakuru,Restaurants,thelawnsrestaurant@gmail.com,25470008420
TRA1/47/B01/65600,Lanzhou Silk Noodles Co. limited,Nairobi,Nairobi,Restaurants,lanzhousilknoodles@gmail.com,728068302
TRA1/47/B01/65618,JIANG NAN GONG SHE LIMITED,Nairobi,Nairobi,Restaurants,xie520336@gmail.com,757974924
TRA2/1/B01/65619,Sason Limited,Mombasa,Mombasa,Restaurants,sasonlimited2021@gmail.com,721777110
TRA1/47/B01/65634,CHIQ-QICK GROUP LIMITED,Nairobi,Nairobi,Restaurants,KOKI.NAKAYAOFFICIAL@GMAIL.COM,741949430
TRA3/3/B01/65643,MAMUSH HOTEL,Kilifi,Malindi,Restaurants,didsyyou1@gmail.com,743302503
TRA3/3/B01/65645,MUDZO LOUNGE BAR,Kilifi,Malindi,Restaurants,mudzolounge@gmail.com,703995745
TRA1/34/B01/65729,SIRONKA VALLEY RESORT & SPA,Kajiado,Nairobi,Restaurants,flx_otieno@yahoo.com,740564032
TRA1/47/B01/65735,JIANG NAN XIAO YUAN VENTURE LIMITED,Nairobi,Nairobi,Restaurants,jiangnanxiaoyuan659@gmail.com,705738158
TRA3/3/B01/65768,MANSOUR ALI ABDALLA,Kilifi,Malindi,Restaurants,rashidseif31@gmail.com,726872426
TRA1/22/B02/65936,NGECHA ORGANICS LTD,Kiambu,Nairobi,Restaurants,info@mlango.org,728848296
TRA1/47/B01/66070,FALAFEL HOUSE LIMITED,Nairobi,Nairobi,Restaurants,adodhia22@gmail.com,746127115
TRA3/5/B01/66173,FLOATING PUB AND RESTAURANT,Lamu,Malindi,Restaurants,fridah_njeri@yahoo.com,721510852
TRA1/47/B01/66205,HAKUNA MATATA CAFE,Nairobi,Nairobi,Restaurants,ANSHKALIMITED@GMAIL.COM,2.54736E+11
TRA2/1/B01/66255,PALM LOTUS LIMITED,Mombasa,Mombasa,Restaurants,PUREKENYA12@GMAIL.COM,726027494
TRA2/1/B01/66400,LIS BARBEQUE RESTAURANT LTD,Mombasa,Mombasa,Restaurants,anglomeatsaccounts@yahoo.com,735838959
TRA3/3/B01/66648,KACHAWE BEACH BAR & RESTAURANT,Kilifi,Malindi,Restaurants,uovokenyasafari@gmail.com,725070459
TRA4/27/B01/66701,TAMU EVENTS AND CATERING SERVICES LIMITED T/A TAMU RESTAURANT,Uasin Gishu,Eldoret,Restaurants,tamurestaurantskenya@gmail.com,732740890
TRA4/29/B01/66763,"HILLRUK HOTEL ",Nandi,Eldoret,Restaurants,hillrukhotel@gmail.com,722751641
TRA6/32/B01/66855,Los Gatos Limited,Nakuru,Nakuru,Restaurants,stanley.mbugua@gmail.com,2.54707E+11
TRA6/32/B01/66970,JADE HEKIMA LAWN LTD,Nakuru,Nakuru,Restaurants,jadehekima@gmail.com,723741967
TRA1/1/B01/67000,FLAVOR TOWN CAFÉ-MOMBASA (ACACIA CENTRE),Mombasa,Nairobi,Restaurants,mromar980@gmail.com,716676767
TRA6/32/B01/67130,THE BARN BBQ AND LOUNGE LTD,Nakuru,Nakuru,Restaurants,thebarnbbq@gmail.com,702652000
